{"type": "FeatureCollection", "features": [{"type": "Feature", "properties": {"display_name": "Muğla, Ege Bölgesi, Türkiye"}, "geometry": {"type": "Polygon", "coordinates": [[[27.118267, 37.0083687], [27.1237576, 37.0042435], [27.1409982, 36.9924832], [27.1413728, 36.9922191], [27.1421284, 36.9916916], [27.1434541, 36.9908982], [27.153921, 36.9867395], [27.1547457, 36.9864055], [27.1562917, 36.9858562], [27.1582878, 36.9852056], [27.1677685, 36.9821684], [27.1682649, 36.982014], [27.1715294, 36.9796791], [27.1750457, 36.9772445], [27.1771562, 36.9757311], [27.1790213, 36.9744425], [27.1865706, 36.9713319], [27.1951724, 36.9678962], [27.2022235, 36.9647747], [27.2038291, 36.9640844], [27.2144254, 36.9514899], [27.2185515, 36.9460944], [27.2210769, 36.9428674], [27.2221897, 36.9422305], [27.226299, 36.9369536], [27.2274442, 36.9368104], [27.229726, 36.9365537], [27.2333748, 36.9361711], [27.2350424, 36.9360078], [27.2357027, 36.9359643], [27.2367145, 36.9359348], [27.2486004, 36.9361956], [27.2569518, 36.9373477], [27.2636573, 36.9375261], [27.2644411, 36.9375749], [27.2680911, 36.9378263], [27.2695296, 36.9379355], [27.2700831, 36.9379809], [27.2791836, 36.9369542], [27.2840771, 36.9364296], [27.2890432, 36.9340627], [27.2910137, 36.9331391], [27.2924084, 36.9324968], [27.2930333, 36.9322144], [27.2955687, 36.9310931], [27.3061465, 36.9265345], [27.3105075, 36.9245896], [27.3201783, 36.9206245], [27.3209811, 36.9202999], [27.3358944, 36.9256131], [27.3594277, 36.9341614], [27.3707233, 36.9380362], [27.3904785, 36.9321371], [27.3908887, 36.9317776], [27.3990198, 36.9249709], [27.4138676, 36.9134634], [27.4146646, 36.9128508], [27.4155244, 36.9120443], [27.4214146, 36.9072259], [27.4285183, 36.9014536], [27.4299472, 36.9002683], [27.432164, 36.8984418], [27.4343479, 36.8967074], [27.4346071, 36.8965157], [27.4516059, 36.8811334], [27.4517143, 36.8810411], [27.4520361, 36.8807869], [27.4523059, 36.8805737], [27.4536649, 36.8803042], [27.4551896, 36.880022], [27.4567196, 36.879759], [27.4582546, 36.8795152], [27.4597534, 36.8792966], [27.4606141, 36.8791422], [27.462155, 36.8788861], [27.4637008, 36.8786494], [27.465251, 36.8784323], [27.4668053, 36.8782348], [27.4683633, 36.8780568], [27.4699246, 36.8778986], [27.4714889, 36.87776], [27.4730557, 36.8776413], [27.4746246, 36.8775422], [27.4761953, 36.877463], [27.4777673, 36.8774036], [27.4793404, 36.877364], [27.480914, 36.8773443], [27.4824878, 36.8773444], [27.4840614, 36.8773644], [27.4856344, 36.8774042], [27.4872064, 36.8774639], [27.4887771, 36.8775433], [27.490346, 36.8776426], [27.4919128, 36.8777616], [27.493477, 36.8779004], [27.4950383, 36.8780589], [27.4965962, 36.8782371], [27.4981505, 36.8784348], [27.4997007, 36.8786522], [27.5012463, 36.8788891], [27.5027872, 36.8791454], [27.5043228, 36.8794212], [27.5058527, 36.8797162], [27.5073767, 36.8800306], [27.5088943, 36.8803641], [27.5104051, 36.8807167], [27.5119087, 36.8810883], [27.5134049, 36.8814788], [27.5148932, 36.8818882], [27.5163732, 36.8823162], [27.5178446, 36.8827629], [27.519307, 36.883228], [27.5207601, 36.8837116], [27.5222034, 36.8842134], [27.5236367, 36.8847333], [27.5250596, 36.8852713], [27.5264717, 36.8858271], [27.5278726, 36.8864006], [27.5280961, 36.8864939], [27.5294796, 36.8870825], [27.5308513, 36.8876883], [27.532211, 36.8883113], [27.5335583, 36.8889512], [27.5348929, 36.889608], [27.5362144, 36.8902815], [27.5375225, 36.8909715], [27.5388169, 36.8916778], [27.5400973, 36.8924002], [27.5413634, 36.8931386], [27.5426148, 36.8938929], [27.5438513, 36.8946627], [27.5444498, 36.8950476], [27.5454535, 36.8956192], [27.5467148, 36.8963616], [27.5468652, 36.8964531], [27.5471277, 36.8964146], [27.5486553, 36.8962104], [27.5501852, 36.8960254], [27.551203, 36.8956531], [27.5526297, 36.8951527], [27.554066, 36.8946701], [27.5555116, 36.8942055], [27.556966, 36.893759], [27.558429, 36.8933307], [27.5599001, 36.8929208], [27.5613791, 36.8925292], [27.5628655, 36.8921561], [27.5643591, 36.8918017], [27.5658593, 36.8914659], [27.567366, 36.8911489], [27.5688786, 36.8908507], [27.5703969, 36.8905714], [27.5719204, 36.8903112], [27.5733943, 36.8900785], [27.5739738, 36.8899464], [27.5754727, 36.8896246], [27.5769776, 36.8893215], [27.5784883, 36.8890371], [27.5800042, 36.8887716], [27.5815252, 36.8885249], [27.5830507, 36.8882972], [27.5845806, 36.8880885], [27.5861142, 36.8878988], [27.5876514, 36.8877283], [27.5891917, 36.8875768], [27.5907348, 36.8874445], [27.5922803, 36.8873315], [27.5938277, 36.8872376], [27.5952706, 36.8871592], [27.5968423, 36.8870836], [27.5984152, 36.8870279], [27.5999891, 36.8869921], [27.6015635, 36.8869761], [27.603138, 36.88698], [27.6047122, 36.8870037], [27.6062857, 36.8870473], [27.6078582, 36.8871108], [27.6094293, 36.887194], [27.6109985, 36.8872971], [27.6111344, 36.8873078], [27.6107981, 36.8872252], [27.6093132, 36.8868401], [27.607836, 36.8864365], [27.6063668, 36.8860144], [27.6049061, 36.885574], [27.6034542, 36.8851154], [27.6020115, 36.8846387], [27.6005782, 36.8841441], [27.5991548, 36.8836315], [27.5977415, 36.8831012], [27.5963389, 36.8825533], [27.594947, 36.8819879], [27.5935665, 36.8814051], [27.5921974, 36.8808052], [27.5908403, 36.8801881], [27.5894954, 36.8795542], [27.5881631, 36.8789036], [27.5868436, 36.8782363], [27.5855374, 36.8775526], [27.5842447, 36.8768527], [27.5829658, 36.8761366], [27.5817011, 36.8754047], [27.5804508, 36.874657], [27.5792153, 36.8738938], [27.5779949, 36.8731151], [27.5767898, 36.8723213], [27.5756004, 36.8715125], [27.574427, 36.870689], [27.5732698, 36.8698508], [27.5721291, 36.8689983], [27.5710053, 36.8681315], [27.5708433, 36.8680046], [27.5697385, 36.8671256], [27.5686511, 36.8662328], [27.5675812, 36.8653266], [27.5665291, 36.8644071], [27.565495, 36.8634746], [27.5644793, 36.8625293], [27.5635458, 36.8616325], [27.5629269, 36.8612414], [27.5617138, 36.8604499], [27.5605164, 36.8596432], [27.559335, 36.8588216], [27.5581698, 36.8579852], [27.5570211, 36.8571344], [27.5558893, 36.8562692], [27.5547745, 36.8553899], [27.5536771, 36.8544967], [27.5525974, 36.8535898], [27.5515356, 36.8526695], [27.5504919, 36.851736], [27.5494666, 36.8507895], [27.5484601, 36.8498302], [27.5474724, 36.8488584], [27.5465039, 36.8478743], [27.5455548, 36.8468782], [27.5451561, 36.8464458], [27.5442333, 36.8454819], [27.5432787, 36.8444509], [27.5423449, 36.8434078], [27.5414322, 36.8423527], [27.5409265, 36.8417476], [27.5401526, 36.8416122], [27.5386646, 36.8413327], [27.5371821, 36.8410351], [27.5357054, 36.8407192], [27.534235, 36.8403854], [27.5327711, 36.8400335], [27.5313141, 36.8396637], [27.5298644, 36.8392762], [27.5284222, 36.8388709], [27.526988, 36.8384479], [27.5255621, 36.8380075], [27.5239621, 36.837502], [27.5236507, 36.8374014], [27.5231811, 36.8376901], [27.521958, 36.8384189], [27.520721, 36.8391326], [27.5194706, 36.8398312], [27.518207, 36.8405143], [27.5166276, 36.8413542], [27.5157726, 36.8418038], [27.5151839, 36.8421099], [27.5138911, 36.8427709], [27.5125858, 36.8434159], [27.5112683, 36.8440448], [27.5099388, 36.8446574], [27.5085977, 36.8452536], [27.5072454, 36.8458332], [27.505882, 36.8463961], [27.504508, 36.8469422], [27.5031237, 36.8474713], [27.5017294, 36.8479833], [27.5003254, 36.8484781], [27.4989121, 36.8489556], [27.4974898, 36.8494156], [27.4960588, 36.8498581], [27.4946195, 36.8502829], [27.4931722, 36.85069], [27.4917173, 36.8510792], [27.490255, 36.8514505], [27.4887858, 36.8518037], [27.48731, 36.8521389], [27.4858279, 36.8524559], [27.48434, 36.8527546], [27.4836744, 36.8528838], [27.4821636, 36.8531673], [27.4806474, 36.853432], [27.4791263, 36.8536777], [27.4776007, 36.8539045], [27.4760708, 36.8541124], [27.474537, 36.8543011], [27.4729998, 36.8544708], [27.4714595, 36.8546213], [27.4699164, 36.8547526], [27.4683709, 36.8548647], [27.4679827, 36.854888], [27.4675628, 36.8549211], [27.4660216, 36.855023], [27.4644786, 36.8551058], [27.4629342, 36.8551695], [27.4613887, 36.855214], [27.4598425, 36.8552394], [27.4582961, 36.8552456], [27.4567497, 36.8552326], [27.4564155, 36.8552256], [27.4556578, 36.8546292], [27.4326871, 36.8365467], [27.421037, 36.8273145], [27.3909099, 36.8032711], [27.3831058, 36.8011188], [27.3740425, 36.7976933], [27.3721445, 36.7968643], [27.3706829, 36.7962376], [27.3609499, 36.7919841], [27.3548764, 36.7889802], [27.3496445, 36.7863768], [27.3471737, 36.7851377], [27.3405244, 36.7817399], [27.3376093, 36.7801782], [27.334514, 36.7782037], [27.333702, 36.7776802], [27.3270155, 36.7732334], [27.3263713, 36.7727936], [27.316431, 36.7697452], [27.3158226, 36.7694774], [27.3109717, 36.7673105], [27.3095624, 36.7666648], [27.2972584, 36.7610153], [27.2948208, 36.7597265], [27.293506, 36.7590266], [27.2789599, 36.7514298], [27.2753768, 36.7495586], [27.2752305, 36.7493605], [27.2744564, 36.7482738], [27.2737036, 36.7471774], [27.2729724, 36.7460718], [27.2722627, 36.7449571], [27.271575, 36.7438337], [27.2709092, 36.7427017], [27.2702657, 36.7415616], [27.2696444, 36.7404134], [27.2690457, 36.7392576], [27.2684696, 36.7380945], [27.2679162, 36.7369242], [27.2673858, 36.7357471], [27.2668784, 36.7345635], [27.2663942, 36.7333737], [27.2659333, 36.7321779], [27.2654958, 36.7309765], [27.2650818, 36.7297697], [27.2646913, 36.7285578], [27.2646744, 36.7285017], [27.2653838, 36.7253616], [27.2679523, 36.7139915], [27.2704093, 36.7007574], [27.2719995, 36.6923295], [27.2724518, 36.6900057], [27.2726851, 36.6819192], [27.273392, 36.6626374], [27.2736392, 36.6567233], [27.2744531, 36.6553532], [27.2854056, 36.6401897], [27.2883828, 36.6360502], [27.2899847, 36.6338728], [27.2912566, 36.6325961], [27.2975929, 36.6262913], [27.3032483, 36.6207205], [27.3032564, 36.6207155], [27.3045304, 36.6199582], [27.3058193, 36.6192172], [27.3071227, 36.6184927], [27.3084402, 36.6177849], [27.3097716, 36.617094], [27.3111165, 36.6164201], [27.3124745, 36.6157635], [27.3138454, 36.6151242], [27.3152287, 36.6145025], [27.3166242, 36.6138985], [27.3180314, 36.6133124], [27.3194501, 36.6127443], [27.3208798, 36.6121943], [27.3223202, 36.6116627], [27.323771, 36.6111494], [27.3252317, 36.6106547], [27.3257521, 36.6104863], [27.3264953, 36.6102247], [27.3265165, 36.6102176], [27.3277762, 36.6096765], [27.3291647, 36.6091024], [27.3305643, 36.6085458], [27.3319746, 36.6080068], [27.3324927, 36.6078168], [27.3325579, 36.6077605], [27.3336443, 36.6068524], [27.3347483, 36.605958], [27.3358697, 36.6050777], [27.3370082, 36.6042116], [27.3381635, 36.60336], [27.3393353, 36.6025231], [27.3405234, 36.601701], [27.3417274, 36.600894], [27.342947, 36.6001023], [27.344182, 36.599326], [27.3454321, 36.5985655], [27.3466968, 36.5978208], [27.347976, 36.5970921], [27.3492693, 36.5963796], [27.3505764, 36.5956836], [27.3518969, 36.5950041], [27.3532306, 36.5943413], [27.3545771, 36.5936954], [27.355936, 36.5930667], [27.3573071, 36.5924551], [27.35869, 36.5918609], [27.3600843, 36.5912842], [27.3614898, 36.5907251], [27.362906, 36.5901839], [27.3643326, 36.5896606], [27.3657693, 36.5891553], [27.3672157, 36.5886682], [27.3686715, 36.5881995], [27.3701363, 36.5877491], [27.3716096, 36.5873173], [27.3730913, 36.5869041], [27.3745809, 36.5865097], [27.376078, 36.5861341], [27.3775822, 36.5857775], [27.3790933, 36.5854398], [27.3806107, 36.5851213], [27.3821343, 36.5848219], [27.3836634, 36.5845418], [27.3851979, 36.5842811], [27.3867373, 36.5840397], [27.3882812, 36.5838178], [27.3898293, 36.5836154], [27.3900669, 36.5835858], [27.391598, 36.5834053], [27.3931323, 36.5832438], [27.3946695, 36.5831015], [27.3962094, 36.5829783], [27.3977514, 36.5828743], [27.3992952, 36.5827895], [27.4008405, 36.5827239], [27.4023869, 36.5826776], [27.403934, 36.5826505], [27.4054814, 36.5826427], [27.4070288, 36.5826542], [27.4085758, 36.5826849], [27.410122, 36.5827348], [27.411667, 36.582804], [27.4132105, 36.5828925], [27.4147522, 36.5830001], [27.4162915, 36.5831269], [27.4173106, 36.5832237], [27.417315, 36.583221], [27.418572, 36.5824771], [27.4198435, 36.5817491], [27.4211289, 36.5810371], [27.4224281, 36.5803413], [27.4237407, 36.5796619], [27.4250663, 36.5789992], [27.4264047, 36.5783531], [27.4277555, 36.5777239], [27.4291184, 36.5771118], [27.4304931, 36.5765168], [27.4318792, 36.5759392], [27.4332763, 36.5753791], [27.4346842, 36.5748366], [27.4361025, 36.5743118], [27.4375309, 36.5738049], [27.4389689, 36.5733161], [27.4404163, 36.5728453], [27.4418727, 36.5723928], [27.4433377, 36.5719586], [27.444811, 36.5715429], [27.4462922, 36.5711458], [27.447781, 36.5707673], [27.449277, 36.5704075], [27.4507798, 36.5700666], [27.452289, 36.5697446], [27.4538043, 36.5694416], [27.4553254, 36.5691577], [27.4568518, 36.5688929], [27.4583831, 36.5686474], [27.4599191, 36.5684211], [27.4614593, 36.5682141], [27.4630033, 36.5680265], [27.4645508, 36.5678583], [27.4661013, 36.5677096], [27.4676546, 36.5675804], [27.4692102, 36.5674707], [27.4707677, 36.5673806], [27.4723269, 36.5673101], [27.4738872, 36.5672591], [27.4754483, 36.5672278], [27.4770098, 36.5672161], [27.4785713, 36.567224], [27.4801325, 36.5672515], [27.481693, 36.5672987], [27.4832524, 36.5673654], [27.4848103, 36.5674517], [27.4863663, 36.5675576], [27.48792, 36.567683], [27.4884569, 36.5677298], [27.4899942, 36.5678733], [27.4915285, 36.568036], [27.4930595, 36.5682177], [27.4945869, 36.5684185], [27.4961101, 36.5686383], [27.4976289, 36.568877], [27.499143, 36.5691347], [27.5006518, 36.5694111], [27.5021552, 36.5697063], [27.5036527, 36.5700201], [27.5051439, 36.5703526], [27.5066286, 36.5707036], [27.5081063, 36.571073], [27.5095766, 36.5714608], [27.5110394, 36.5718669], [27.5124941, 36.5722911], [27.5139404, 36.5727334], [27.515378, 36.5731936], [27.5168066, 36.5736717], [27.5182258, 36.5741675], [27.5196352, 36.5746809], [27.5200629, 36.5748431], [27.5211717, 36.5749389], [27.522732, 36.5750937], [27.524289, 36.5752682], [27.5258424, 36.5754623], [27.5273918, 36.5756761], [27.5289368, 36.5759095], [27.530477, 36.5761623], [27.5320121, 36.5764346], [27.5335417, 36.5767263], [27.5350653, 36.5770373], [27.5365827, 36.5773675], [27.5380934, 36.5777169], [27.539597, 36.5780854], [27.5410933, 36.5784728], [27.5425818, 36.578879], [27.5440621, 36.5793041], [27.5455339, 36.5797478], [27.5469968, 36.5802101], [27.5472098, 36.5802789], [27.5486622, 36.5807592], [27.5501051, 36.5812578], [27.551538, 36.5817746], [27.5529606, 36.5823094], [27.5543726, 36.5828621], [27.5557735, 36.5834325], [27.5571631, 36.5840206], [27.558541, 36.5846262], [27.5599069, 36.5852491], [27.5612604, 36.5858892], [27.5626011, 36.5865463], [27.5639289, 36.5872202], [27.5652432, 36.5879109], [27.5665439, 36.588618], [27.5678305, 36.5893415], [27.5691028, 36.5900812], [27.5703605, 36.5908368], [27.5716032, 36.5916082], [27.5728306, 36.5923952], [27.5734904, 36.5928321], [27.5743826, 36.5929269], [27.5759392, 36.5931124], [27.5774918, 36.5933176], [27.5790403, 36.5935424], [27.5805842, 36.5937867], [27.582123, 36.5940506], [27.5836565, 36.5943339], [27.5851843, 36.5946366], [27.5867059, 36.5949585], [27.588221, 36.5952997], [27.5897292, 36.59566], [27.5912301, 36.5960394], [27.5925977, 36.5964041], [27.5928768, 36.5963208], [27.594371, 36.5958963], [27.5958734, 36.5954908], [27.5973836, 36.5951045], [27.5989013, 36.5947375], [27.600426, 36.59439], [27.6015352, 36.5941523], [27.601565, 36.5941382], [27.6029305, 36.5935123], [27.6043081, 36.5929037], [27.6056975, 36.5923127], [27.6070984, 36.5917393], [27.6085102, 36.5911837], [27.6099329, 36.590646], [27.6113659, 36.5901263], [27.6128089, 36.5896249], [27.6142615, 36.5891417], [27.6157235, 36.588677], [27.6171944, 36.5882308], [27.6186739, 36.5878033], [27.6201615, 36.5873945], [27.621657, 36.5870047], [27.62316, 36.5866337], [27.6246701, 36.5862818], [27.6261868, 36.5859491], [27.62771, 36.5856356], [27.629239, 36.5853414], [27.6307737, 36.5850665], [27.631315, 36.5849767], [27.6318837, 36.5847901], [27.6333462, 36.5843316], [27.6348175, 36.5838916], [27.6362972, 36.5834703], [27.637785, 36.5830677], [27.6392804, 36.5826839], [27.6407832, 36.582319], [27.642293, 36.5819732], [27.6438094, 36.5816465], [27.6453319, 36.581339], [27.6468603, 36.5810507], [27.6482268, 36.5808111], [27.658163, 36.5863118], [27.6965478, 36.6052448], [27.6980033, 36.605974], [27.6985935, 36.6063153], [27.7034214, 36.6113033], [27.7163233, 36.6247392], [27.7186693, 36.6275124], [27.720405, 36.6296088], [27.7270347, 36.6377508], [27.7371685, 36.65034], [27.7438635, 36.6690525], [27.7458918, 36.6709158], [27.7472664, 36.6721857], [27.7512484, 36.6759288], [27.7573405, 36.684272], [27.7595278, 36.6867432], [27.7615679, 36.6891353], [27.7644424, 36.6932376], [27.773188, 36.6967408], [27.7734991, 36.6968664], [27.7774915, 36.6980649], [27.8042789, 36.7033063], [27.8096235, 36.702606], [27.8258231, 36.7028221], [27.838456, 36.7048934], [27.8594061, 36.7045409], [27.8674667, 36.7046144], [27.8702684, 36.704655], [27.8744655, 36.7046339], [27.8936764, 36.6994045], [27.9073619, 36.6948658], [27.9074708, 36.6944079], [27.9117523, 36.6769017], [27.9118306, 36.676258], [27.9119108, 36.676009], [27.9160405, 36.6634826], [27.9176031, 36.6588586], [27.9201818, 36.6514929], [27.9274122, 36.6417974], [27.9272361, 36.6413752], [27.9262962, 36.6390801], [27.9246401, 36.6304108], [27.9211147, 36.6193364], [27.9199029, 36.6133358], [27.9192218, 36.6062703], [27.9189395, 36.6031559], [27.9186419, 36.6004693], [27.9187102, 36.5946808], [27.9189385, 36.5932843], [27.9210605, 36.5808195], [27.9218478, 36.5794256], [27.9231501, 36.5700992], [27.9241247, 36.5612342], [27.9275181, 36.5526597], [27.9281182, 36.5512683], [27.9283811, 36.5506759], [27.9284769, 36.5411251], [27.9290057, 36.5341098], [27.9335495, 36.5244945], [27.9519204, 36.4860346], [27.9578096, 36.4752162], [27.9578501, 36.4751418], [27.9585586, 36.4750189], [27.9600511, 36.4747791], [27.9615479, 36.4745577], [27.9630488, 36.4743546], [27.9645533, 36.47417], [27.9660612, 36.4740038], [27.967572, 36.4738561], [27.9690855, 36.473727], [27.9691905, 36.4737187], [27.970755, 36.4736048], [27.9723215, 36.4735108], [27.9738896, 36.4734367], [27.975459, 36.4733824], [27.9770293, 36.4733479], [27.9786, 36.4733334], [27.9801709, 36.4733387], [27.9817414, 36.4733639], [27.9833113, 36.4734089], [27.98488, 36.4734738], [27.9864474, 36.4735586], [27.9880128, 36.4736632], [27.989576, 36.4737875], [27.9911366, 36.4739317], [27.9912501, 36.4739429], [27.9927925, 36.4741051], [27.9943314, 36.4742865], [27.9958667, 36.4744873], [27.997398, 36.4747072], [27.9989247, 36.4749463], [28.0004467, 36.4752045], [28.0019634, 36.4754818], [28.0034746, 36.475778], [28.0049799, 36.4760931], [28.0064789, 36.476427], [28.0079712, 36.4767797], [28.0094566, 36.477151], [28.0095291, 36.4771701], [28.0099242, 36.4772555], [28.0114173, 36.477598], [28.0129036, 36.4779591], [28.0143828, 36.4783388], [28.0158545, 36.478737], [28.0173182, 36.4791535], [28.0187738, 36.4795883], [28.0202207, 36.4800412], [28.0216587, 36.4805121], [28.0229925, 36.4809685], [28.0234632, 36.480962], [28.0250345, 36.48096], [28.0266056, 36.480978], [28.0281761, 36.4810159], [28.0297458, 36.4810736], [28.0313141, 36.4811512], [28.0328807, 36.4812486], [28.0344451, 36.4813658], [28.0360071, 36.4815028], [28.0375663, 36.4816596], [28.0391221, 36.4818361], [28.0406743, 36.4820322], [28.0422225, 36.482248], [28.0437663, 36.4824833], [28.0453053, 36.4827382], [28.046839, 36.4830125], [28.0483673, 36.4833061], [28.049029, 36.4834422], [28.0503676, 36.4836039], [28.0519053, 36.4838094], [28.0534389, 36.4840342], [28.0549679, 36.4842782], [28.056492, 36.4845414], [28.0580108, 36.4848237], [28.0581902, 36.4848583], [28.0597294, 36.485165], [28.0612624, 36.4854913], [28.0627887, 36.4858372], [28.0643081, 36.4862025], [28.06582, 36.4865872], [28.0673241, 36.4869912], [28.06882, 36.4874143], [28.0703074, 36.4878564], [28.0717859, 36.4883175], [28.0732551, 36.4887974], [28.0747146, 36.489296], [28.0761641, 36.4898132], [28.0776031, 36.4903489], [28.0790314, 36.4909028], [28.0804486, 36.4914749], [28.0818543, 36.4920651], [28.0832482, 36.4926731], [28.0846298, 36.4932988], [28.085999, 36.4939421], [28.0873552, 36.4946028], [28.0886982, 36.4952807], [28.0900277, 36.4959757], [28.0913432, 36.4966875], [28.0926445, 36.4974161], [28.0939313, 36.4981612], [28.0952031, 36.4989226], [28.0964598, 36.4997001], [28.0965645, 36.499766], [28.097755, 36.5005266], [28.098931, 36.5013017], [28.0996865, 36.5018154], [28.0999425, 36.5019616], [28.1012053, 36.5027067], [28.1015077, 36.5028911], [28.1026698, 36.5030158], [28.1042193, 36.503202], [28.1057649, 36.5034077], [28.1073064, 36.5036329], [28.1088432, 36.5038776], [28.1103751, 36.5041415], [28.1119017, 36.5044248], [28.1134225, 36.5047273], [28.1149372, 36.505049], [28.1164455, 36.5053897], [28.1179469, 36.5057494], [28.1194411, 36.506128], [28.1209278, 36.5065254], [28.1224065, 36.5069415], [28.1238769, 36.5073761], [28.1253386, 36.5078293], [28.1267913, 36.5083009], [28.1282346, 36.5087907], [28.1296682, 36.5092987], [28.1310916, 36.5098247], [28.1325047, 36.5103686], [28.1339069, 36.5109302], [28.135298, 36.5115095], [28.1366776, 36.5121062], [28.1380454, 36.5127203], [28.139401, 36.5133515], [28.1407441, 36.5139997], [28.1408641, 36.5140597], [28.1416716, 36.514399], [28.1430464, 36.514999], [28.1444095, 36.5156162], [28.1457603, 36.5162504], [28.1469155, 36.5168126], [28.1473327, 36.5168745], [28.1488709, 36.5171226], [28.150404, 36.5173902], [28.1519317, 36.517677], [28.1534535, 36.5179832], [28.15455, 36.5182185], [28.1585031, 36.519945], [28.1686394, 36.5243254], [28.1890969, 36.5332102], [28.1949576, 36.535771], [28.1952012, 36.5359415], [28.1963635, 36.5367809], [28.1975092, 36.5376349], [28.1986382, 36.5385031], [28.1997502, 36.5393855], [28.2008448, 36.5402817], [28.2019218, 36.5411915], [28.2029809, 36.5421148], [28.204022, 36.5430513], [28.2050446, 36.5440007], [28.2060487, 36.5449629], [28.2070338, 36.5459376], [28.2079999, 36.5469245], [28.2089466, 36.5479234], [28.2098737, 36.5489342], [28.210781, 36.5499564], [28.2116682, 36.5509899], [28.2125352, 36.5520344], [28.2133818, 36.5530897], [28.2142077, 36.5541555], [28.2150127, 36.5552316], [28.2157966, 36.5563176], [28.2165593, 36.5574133], [28.2173005, 36.5585185], [28.2180201, 36.5596328], [28.2187179, 36.5607561], [28.2193937, 36.5618879], [28.2200474, 36.5630281], [28.2206787, 36.5641764], [28.2212876, 36.5653324], [28.2217191, 36.5661698], [28.2222874, 36.5672969], [28.2228344, 36.5684307], [28.2233599, 36.569571], [28.2238638, 36.5707176], [28.2243459, 36.5718702], [28.2248063, 36.5730285], [28.2252447, 36.5741923], [28.2256611, 36.5753612], [28.2260554, 36.5765351], [28.2264275, 36.5777136], [28.2267773, 36.5788965], [28.2271046, 36.5800835], [28.2274096, 36.5812743], [28.227692, 36.5824687], [28.2279189, 36.5834697], [28.2281878, 36.5847114], [28.2284324, 36.5859564], [28.2286526, 36.5872043], [28.2288483, 36.5884549], [28.2290195, 36.5897077], [28.2291662, 36.5909625], [28.2292882, 36.5922189], [28.2293856, 36.5934768], [28.2294584, 36.5947357], [28.2295066, 36.5959953], [28.2295293, 36.5967945], [28.2295526, 36.5980418], [28.2295517, 36.5992891], [28.229538, 36.5999727], [28.229855, 36.6004213], [28.2306194, 36.6015443], [28.2313614, 36.602677], [28.231776, 36.6033352], [28.2319521, 36.6036033], [28.2321576, 36.6039283], [28.2322774, 36.6040913], [28.2330591, 36.6051947], [28.233819, 36.6063079], [28.2345568, 36.6074306], [28.2352724, 36.6085625], [28.2353807, 36.6087407], [28.2355693, 36.6087609], [28.2370638, 36.6089387], [28.2385548, 36.6091347], [28.2400418, 36.6093488], [28.2416408, 36.6095891], [28.2432237, 36.6098375], [28.2448013, 36.6101065], [28.2463733, 36.6103958], [28.2482923, 36.6107622], [28.2498358, 36.6110673], [28.2513732, 36.6113922], [28.2529038, 36.6117366], [28.2544275, 36.6121006], [28.2559437, 36.612484], [28.2574522, 36.6128867], [28.2589525, 36.6133086], [28.2604442, 36.6137497], [28.2619269, 36.6142098], [28.2634004, 36.6146888], [28.2648641, 36.6151865], [28.2663178, 36.6157029], [28.2677611, 36.6162378], [28.2691936, 36.6167911], [28.2706149, 36.6173626], [28.2720247, 36.6179522], [28.2734226, 36.6185597], [28.2748083, 36.619185], [28.2761814, 36.619828], [28.2775415, 36.6204884], [28.2788884, 36.6211661], [28.2802217, 36.621861], [28.281541, 36.6225727], [28.2828461, 36.6233013], [28.2841365, 36.6240464], [28.2854119, 36.6248079], [28.2866721, 36.6255856], [28.2879167, 36.6263794], [28.2891454, 36.6271889], [28.2903579, 36.628014], [28.2915538, 36.6288545], [28.2927329, 36.6297101], [28.2938949, 36.6305807], [28.2950395, 36.631466], [28.2960085, 36.6322276], [28.2971323, 36.633125], [28.2982382, 36.6340365], [28.2993259, 36.6349621], [28.3003952, 36.6359013], [28.3014457, 36.6368541], [28.3024773, 36.6378201], [28.3034896, 36.6387991], [28.3044824, 36.6397909], [28.3054554, 36.6407952], [28.3057403, 36.6410991], [28.3061059, 36.641148], [28.3065184, 36.6412006], [28.3068792, 36.6412513], [28.3072405, 36.6412995], [28.3076514, 36.6413598], [28.3080629, 36.6414176], [28.3084226, 36.6414728], [28.3087829, 36.6415256], [28.3091926, 36.641591], [28.3096029, 36.641654], [28.3099615, 36.6417138], [28.3103208, 36.6417712], [28.3107291, 36.6418417], [28.3111381, 36.6419099], [28.3114955, 36.6419741], [28.3118536, 36.642036], [28.3122605, 36.6421117], [28.3126681, 36.642185], [28.3130242, 36.6422538], [28.313381, 36.6423202], [28.3137864, 36.642401], [28.3141925, 36.6424794], [28.3145473, 36.6425526], [28.3149027, 36.6426235], [28.3151864, 36.642682], [28.3156138, 36.6427729], [28.315711, 36.642793], [28.3157945, 36.6428113], [28.3166896, 36.6430017], [28.3181864, 36.6433403], [28.3196764, 36.6436975], [28.3211593, 36.6440732], [28.3226347, 36.6444675], [28.3241023, 36.6448801], [28.3255617, 36.6453111], [28.3270125, 36.6457602], [28.3284545, 36.6462274], [28.3298872, 36.6467125], [28.3313103, 36.6472156], [28.3327235, 36.6477363], [28.3341264, 36.6482746], [28.3355186, 36.6488304], [28.3368999, 36.6494035], [28.33827, 36.6499939], [28.3396283, 36.6506012], [28.3409748, 36.6512255], [28.3423089, 36.6518665], [28.3436304, 36.6525241], [28.344939, 36.6531981], [28.3462344, 36.6538884], [28.3475162, 36.6545948], [28.3487841, 36.6553171], [28.3500379, 36.6560552], [28.3512771, 36.6568089], [28.3525016, 36.6575779], [28.353711, 36.6583621], [28.354905, 36.6591614], [28.3560833, 36.6599754], [28.3572457, 36.6608041], [28.3583919, 36.6616472], [28.3595216, 36.6625045], [28.3606344, 36.6633758], [28.3617302, 36.6642609], [28.3620848, 36.6645518], [28.3631728, 36.6654586], [28.3642429, 36.6663789], [28.3652948, 36.6673125], [28.3659853, 36.6679451], [28.3669525, 36.6685795], [28.3681458, 36.6693874], [28.3693232, 36.6702101], [28.3704844, 36.6710476], [28.3716291, 36.6718995], [28.372757, 36.6727656], [28.3738679, 36.6736458], [28.3749616, 36.6745398], [28.3752835, 36.6748071], [28.376368, 36.675722], [28.3774344, 36.6766504], [28.3784824, 36.6775922], [28.3795118, 36.6785472], [28.3805222, 36.679515], [28.3815135, 36.6804954], [28.3824854, 36.6814883], [28.3834377, 36.6824933], [28.3843701, 36.6835102], [28.3852824, 36.6845388], [28.3861743, 36.6855788], [28.3870457, 36.6866299], [28.3878963, 36.6876918], [28.388726, 36.6887644], [28.3895344, 36.6898473], [28.3903214, 36.6909403], [28.3910869, 36.6920431], [28.3918306, 36.6931554], [28.3925523, 36.694277], [28.3932518, 36.6954075], [28.3936934, 36.6961503], [28.3945686, 36.6958677], [28.3960347, 36.6954157], [28.3975096, 36.6949822], [28.3989927, 36.6945673], [28.4004838, 36.6941713], [28.4019825, 36.6937941], [28.4034884, 36.6934358], [28.4050011, 36.6930966], [28.4065204, 36.6927765], [28.4080457, 36.6924756], [28.4095767, 36.6921941], [28.4111131, 36.6919318], [28.4126544, 36.691689], [28.4142003, 36.6914656], [28.4157503, 36.6912618], [28.4173042, 36.6910776], [28.4188616, 36.690913], [28.4204219, 36.6907681], [28.4219849, 36.6906428], [28.4235502, 36.6905373], [28.4251173, 36.6904516], [28.425643, 36.6904262], [28.4272284, 36.6903596], [28.4288148, 36.6903133], [28.430402, 36.6902873], [28.4319895, 36.6902814], [28.4335769, 36.6902958], [28.4351638, 36.6903305], [28.4367499, 36.6903854], [28.4383346, 36.6904605], [28.4399177, 36.6905558], [28.4414986, 36.6906713], [28.4423647, 36.6907457], [28.4427226, 36.6907609], [28.4433611, 36.690796], [28.4446495, 36.6908386], [28.4461902, 36.6909087], [28.4477294, 36.6909978], [28.4492882, 36.6910978], [28.4508431, 36.6912074], [28.4523956, 36.6913364], [28.4539454, 36.6914849], [28.4554921, 36.6916528], [28.4570354, 36.6918401], [28.4585748, 36.6920467], [28.46011, 36.6922726], [28.4616406, 36.6925177], [28.4631662, 36.692782], [28.4646865, 36.6930653], [28.4662011, 36.6933677], [28.4677096, 36.693689], [28.4692117, 36.6940292], [28.4707069, 36.6943882], [28.472195, 36.6947659], [28.4736755, 36.6951622], [28.473943, 36.6952357], [28.4754281, 36.6956541], [28.4769047, 36.6960912], [28.4783726, 36.696547], [28.4798313, 36.6970212], [28.4812805, 36.6975138], [28.4827198, 36.6980247], [28.4841489, 36.6985537], [28.4855675, 36.6991007], [28.4869751, 36.6996656], [28.4883714, 36.7002482], [28.4897561, 36.7008483], [28.4911288, 36.7014659], [28.4924892, 36.7021008], [28.4938369, 36.7027528], [28.4951716, 36.7034217], [28.4964931, 36.7041074], [28.4978008, 36.7048098], [28.4990946, 36.7055285], [28.5003741, 36.7062636], [28.501639, 36.7070147], [28.5028889, 36.7077817], [28.5041237, 36.7085644], [28.5043558, 36.7087164], [28.5054794, 36.7085802], [28.5070416, 36.7084111], [28.5086069, 36.7082617], [28.510175, 36.7081323], [28.5117454, 36.7080226], [28.5123747, 36.7079867], [28.5128528, 36.7068578], [28.513382, 36.7056699], [28.5139346, 36.7044889], [28.5145102, 36.7033149], [28.5151089, 36.7021484], [28.5157305, 36.7009895], [28.5163747, 36.6998386], [28.5170415, 36.698696], [28.5172596, 36.6983371], [28.5175216, 36.6972128], [28.5178372, 36.6959681], [28.5181774, 36.6947276], [28.5185421, 36.6934915], [28.5186712, 36.6930828], [28.5187943, 36.6923741], [28.519034, 36.6911356], [28.5192978, 36.6899004], [28.5195857, 36.6886685], [28.5198977, 36.6874404], [28.5202336, 36.6862164], [28.5205933, 36.6849967], [28.5209768, 36.6837816], [28.521384, 36.6825715], [28.5218148, 36.6813667], [28.522269, 36.6801674], [28.5227466, 36.6789739], [28.5232474, 36.6777865], [28.5237714, 36.6766055], [28.5243183, 36.6754313], [28.5248881, 36.6742641], [28.5254807, 36.6731041], [28.5260957, 36.6719517], [28.5267333, 36.6708071], [28.527393, 36.6696707], [28.5280749, 36.6685427], [28.5287787, 36.6674233], [28.5295043, 36.666313], [28.5302514, 36.6652118], [28.53102, 36.6641202], [28.5318098, 36.6630383], [28.5326206, 36.6619665], [28.5334522, 36.660905], [28.5343044, 36.659854], [28.535177, 36.6588138], [28.5360699, 36.6577848], [28.5369827, 36.656767], [28.5379152, 36.6557608], [28.5388673, 36.6547665], [28.5398387, 36.6537842], [28.5408291, 36.6528142], [28.5418383, 36.6518568], [28.5428661, 36.6509122], [28.5439122, 36.6499805], [28.5449764, 36.6490622], [28.5460583, 36.6481572], [28.5471578, 36.647266], [28.5482745, 36.6463887], [28.5494082, 36.6455255], [28.5505586, 36.6446767], [28.5517255, 36.6438424], [28.5529085, 36.6430228], [28.5541073, 36.6422182], [28.5553217, 36.6414288], [28.5565513, 36.6406547], [28.5577959, 36.6398961], [28.5590551, 36.6391532], [28.5603287, 36.6384263], [28.5604752, 36.6383454], [28.5611471, 36.6379104], [28.5618577, 36.6374648], [28.5628276, 36.6368175], [28.5640458, 36.63603], [28.5652793, 36.6352579], [28.5665277, 36.6345015], [28.5677908, 36.6337608], [28.5690681, 36.633036], [28.5703594, 36.6323275], [28.5716645, 36.6316352], [28.5729828, 36.6309594], [28.5743142, 36.6303003], [28.5756584, 36.629658], [28.5770149, 36.6290327], [28.5783834, 36.6284245], [28.5797637, 36.6278336], [28.5811553, 36.6272602], [28.5825579, 36.6267043], [28.5839713, 36.6261661], [28.5853949, 36.6256457], [28.5868286, 36.6251433], [28.5882719, 36.624659], [28.5897244, 36.6241929], [28.5911859, 36.6237451], [28.592656, 36.6233158], [28.5941342, 36.622905], [28.5956203, 36.6225128], [28.5971139, 36.6221394], [28.5986146, 36.6217848], [28.600122, 36.6214491], [28.6016358, 36.6211324], [28.6031556, 36.6208348], [28.604681, 36.6205564], [28.6062116, 36.6202972], [28.6077472, 36.6200572], [28.6092872, 36.6198366], [28.6108314, 36.6196354], [28.6123792, 36.6194537], [28.6139305, 36.6192914], [28.6154847, 36.6191486], [28.6170415, 36.6190255], [28.6186006, 36.6189219], [28.6201614, 36.618838], [28.6217237, 36.6187736], [28.6232871, 36.618729], [28.6248512, 36.618704], [28.6264155, 36.6186987], [28.6279798, 36.6187131], [28.6290053, 36.6187354], [28.6302978, 36.6182756], [28.6317372, 36.617785], [28.633186, 36.6173126], [28.6346438, 36.6168585], [28.6361104, 36.6164227], [28.6375852, 36.6160055], [28.6390681, 36.6156068], [28.6405585, 36.6152268], [28.6420561, 36.6148656], [28.6435606, 36.6145233], [28.6450717, 36.6141999], [28.6465888, 36.6138956], [28.6481117, 36.6136104], [28.64964, 36.6133444], [28.6511732, 36.6130976], [28.6527111, 36.6128701], [28.6542533, 36.612662], [28.6557993, 36.6124734], [28.6573488, 36.6123041], [28.6589015, 36.6121544], [28.6604568, 36.6120242], [28.6620146, 36.6119136], [28.6635742, 36.6118226], [28.6640547, 36.6118007], [28.664249, 36.6109902], [28.6645698, 36.6097566], [28.6649147, 36.6085272], [28.6652837, 36.6073023], [28.6656767, 36.6060822], [28.6660935, 36.6048671], [28.666534, 36.6036575], [28.6669982, 36.6024536], [28.6674859, 36.6012556], [28.667997, 36.6000639], [28.6685314, 36.5988789], [28.669089, 36.5977007], [28.6696695, 36.5965296], [28.670273, 36.595366], [28.6708991, 36.5942102], [28.6715478, 36.5930624], [28.672219, 36.5919229], [28.6729123, 36.590792], [28.6736277, 36.58967], [28.674365, 36.5885571], [28.675124, 36.5874537], [28.6759046, 36.58636], [28.6767064, 36.5852763], [28.6775294, 36.5842028], [28.6783733, 36.5831398], [28.6792379, 36.5820876], [28.680123, 36.5810464], [28.6810284, 36.5800165], [28.6819539, 36.5789982], [28.6828992, 36.5779916], [28.6838641, 36.5769971], [28.6848483, 36.576015], [28.6858517, 36.5750453], [28.6868739, 36.5740884], [28.6879147, 36.5731446], [28.6889739, 36.572214], [28.6900512, 36.5712969], [28.6911463, 36.5703935], [28.6922589, 36.569504], [28.6933888, 36.5686287], [28.6945358, 36.5677677], [28.6956994, 36.5669213], [28.6968795, 36.5660898], [28.6980757, 36.5652732], [28.6992878, 36.5644718], [28.7005154, 36.5636858], [28.7017582, 36.5629155], [28.703016, 36.5621609], [28.7042884, 36.5614222], [28.7055751, 36.5606998], [28.7068758, 36.5599937], [28.7081901, 36.5593041], [28.7095178, 36.5586311], [28.7108585, 36.557975], [28.7122119, 36.557336], [28.7135776, 36.5567141], [28.7149553, 36.5561095], [28.7163447, 36.5555224], [28.716718, 36.5553677], [28.7181057, 36.5548034], [28.7195042, 36.5542565], [28.7209131, 36.5537273], [28.7223321, 36.5532157], [28.7237608, 36.5527219], [28.725199, 36.5522461], [28.7265313, 36.5518246], [28.72675, 36.5509266], [28.727075, 36.549695], [28.727424, 36.5484676], [28.727797, 36.5472448], [28.7281939, 36.5460268], [28.7286145, 36.5448139], [28.7290587, 36.5436064], [28.7295265, 36.5424047], [28.7300177, 36.5412091], [28.7305323, 36.5400197], [28.73107, 36.538837], [28.7316307, 36.5376611], [28.7322144, 36.5364925], [28.7328208, 36.5353314], [28.7334498, 36.534178], [28.7341013, 36.5330327], [28.7347751, 36.5318958], [28.735471, 36.5307674], [28.7361888, 36.529648], [28.7369285, 36.5285378], [28.7376898, 36.527437], [28.7384724, 36.5263459], [28.7392763, 36.5252648], [28.7401012, 36.524194], [28.740947, 36.5231337], [28.7418133, 36.5220842], [28.7427, 36.5210457], [28.7436069, 36.5200185], [28.7445338, 36.5190029], [28.7454804, 36.5179991], [28.7464465, 36.5170074], [28.7474318, 36.5160279], [28.7484362, 36.515061], [28.7494593, 36.5141069], [28.7505009, 36.5131658], [28.7515608, 36.5122379], [28.7526387, 36.5113235], [28.7537343, 36.5104228], [28.7548474, 36.5095361], [28.7559776, 36.5086635], [28.7571248, 36.5078052], [28.7582886, 36.5069615], [28.7594687, 36.5061326], [28.7606648, 36.5053187], [28.7618768, 36.50452], [28.7631041, 36.5037367], [28.7643466, 36.5029689], [28.765604, 36.5022169], [28.7668759, 36.5014808], [28.768162, 36.5007609], [28.769462, 36.5000573], [28.7707755, 36.4993702], [28.7721024, 36.4986998], [28.7734422, 36.4980461], [28.7747945, 36.4974095], [28.7761592, 36.49679], [28.7775357, 36.4961878], [28.7789239, 36.495603], [28.7803233, 36.4950358], [28.7817336, 36.4944864], [28.7831545, 36.4939548], [28.7845856, 36.4934412], [28.7860265, 36.4929457], [28.7874769, 36.4924685], [28.7889365, 36.4920096], [28.7904049, 36.4915693], [28.7918816, 36.4911475], [28.7933665, 36.4907443], [28.794859, 36.49036], [28.7963588, 36.4899946], [28.7978656, 36.4896481], [28.799379, 36.4893207], [28.8008985, 36.4890124], [28.8024239, 36.4887234], [28.8039548, 36.4884536], [28.8054907, 36.4882032], [28.8070314, 36.4879722], [28.8085763, 36.4877607], [28.8101252, 36.4875687], [28.8116777, 36.4873963], [28.8132333, 36.4872435], [28.8147918, 36.4871104], [28.8163526, 36.4869969], [28.8179155, 36.4869032], [28.81948, 36.4868292], [28.8210457, 36.486775], [28.8226123, 36.4867405], [28.8229313, 36.4867355], [28.8245451, 36.4867206], [28.826159, 36.4867268], [28.8277725, 36.4867539], [28.8293853, 36.486802], [28.8309969, 36.4868711], [28.8326069, 36.4869611], [28.8342148, 36.487072], [28.8358204, 36.4872038], [28.837423, 36.4873564], [28.8390224, 36.4875299], [28.8406181, 36.4877241], [28.8422097, 36.487939], [28.8437968, 36.4881746], [28.8453789, 36.4884308], [28.8469556, 36.4887075], [28.8485266, 36.4890047], [28.8487191, 36.4890425], [28.8502459, 36.4893521], [28.8517665, 36.489681], [28.8532804, 36.4900291], [28.8547873, 36.4903965], [28.8562869, 36.4907828], [28.8577786, 36.4911882], [28.8592622, 36.4916124], [28.8607373, 36.4920554], [28.8622035, 36.492517], [28.8636605, 36.4929972], [28.8651079, 36.4934957], [28.8665453, 36.4940126], [28.8679724, 36.4945476], [28.8693889, 36.4951007], [28.8707943, 36.4956716], [28.8721883, 36.4962603], [28.8735706, 36.4968666], [28.8749408, 36.4974903], [28.8762986, 36.4981313], [28.8776437, 36.4987895], [28.8789757, 36.4994646], [28.8802942, 36.5001565], [28.8815991, 36.5008651], [28.8828898, 36.5015901], [28.8841662, 36.5023314], [28.8854279, 36.5030887], [28.8866745, 36.503862], [28.8879058, 36.5046509], [28.8891215, 36.5054554], [28.8903213, 36.5062751], [28.8915048, 36.50711], [28.8926718, 36.5079598], [28.8938219, 36.5088242], [28.894955, 36.5097031], [28.8960706, 36.5105963], [28.8971686, 36.5115035], [28.8973162, 36.5116273], [28.8983691, 36.5125248], [28.8994047, 36.5134351], [28.9004227, 36.5143581], [28.9014229, 36.5152935], [28.9024052, 36.5162412], [28.9033692, 36.5172009], [28.9043147, 36.5181724], [28.9052415, 36.5191555], [28.9061495, 36.5201498], [28.9064574, 36.5204926], [28.9073762, 36.5215326], [28.9082744, 36.5225842], [28.9091516, 36.5236472], [28.9100077, 36.5247212], [28.9108424, 36.525806], [28.9112285, 36.526326], [28.9112503, 36.526244], [28.9113903, 36.525756], [28.9115283, 36.5252677], [28.9115663, 36.5251421], [28.9116025, 36.5250161], [28.9117519, 36.52453], [28.9118994, 36.5240435], [28.91194, 36.5239184], [28.9119785, 36.5237929], [28.9121375, 36.5233087], [28.9122945, 36.5228241], [28.9123375, 36.5226995], [28.9123785, 36.5225745], [28.9125469, 36.5220924], [28.9127134, 36.5216098], [28.9127588, 36.5214858], [28.9128022, 36.5213614], [28.91298, 36.5208814], [28.9131559, 36.520401], [28.9132037, 36.5202776], [28.9132496, 36.5201537], [28.9134368, 36.519676], [28.913622, 36.5191979], [28.9136722, 36.519075], [28.9137205, 36.5189517], [28.913917, 36.5184765], [28.9141116, 36.5180007], [28.9141642, 36.5178786], [28.9142149, 36.5177559], [28.9144206, 36.5172832], [28.9146245, 36.5168099], [28.9146795, 36.5166884], [28.9147326, 36.5165664], [28.9149475, 36.5160963], [28.9151606, 36.5156257], [28.9152179, 36.5155049], [28.9152734, 36.5153836], [28.9154975, 36.5149163], [28.9157198, 36.5144484], [28.9157795, 36.5143284], [28.9158373, 36.5142077], [28.9160705, 36.5137433], [28.9163019, 36.5132783], [28.9163639, 36.513159], [28.9164241, 36.5130391], [28.9166664, 36.5125777], [28.9169068, 36.5121156], [28.9169712, 36.5119972], [28.9170337, 36.511878], [28.917285, 36.5114197], [28.9175344, 36.5109608], [28.9176011, 36.5108431], [28.9176659, 36.5107248], [28.9179261, 36.5102697], [28.9181845, 36.5098139], [28.9182534, 36.5096971], [28.9183206, 36.5095796], [28.9185896, 36.5091279], [28.9188568, 36.5086754], [28.9189281, 36.5085595], [28.9189976, 36.5084429], [28.9192754, 36.5079946], [28.9195514, 36.5075455], [28.9196249, 36.5074305], [28.9196966, 36.5073148], [28.9199832, 36.50687], [28.920268, 36.5064245], [28.9203437, 36.5063105], [28.9204177, 36.5061956], [28.9207129, 36.5057545], [28.9210063, 36.5053127], [28.9210843, 36.5051996], [28.9211605, 36.5050857], [28.9214643, 36.5046484], [28.9217664, 36.5042103], [28.9218465, 36.5040982], [28.9219249, 36.5039853], [28.9222373, 36.5035519], [28.9225478, 36.5031176], [28.9226302, 36.5030066], [28.9227108, 36.5028947], [28.9230315, 36.5024652], [28.9233505, 36.5020349], [28.923435, 36.5019249], [28.9235178, 36.5018141], [28.9238469, 36.5013887], [28.9241743, 36.5009625], [28.924261, 36.5008536], [28.9243459, 36.5007438], [28.9246833, 36.5003226], [28.9250189, 36.4999006], [28.9251077, 36.4997928], [28.9251948, 36.499684], [28.9255403, 36.4992672], [28.9258842, 36.4988495], [28.9259751, 36.4987428], [28.9260643, 36.4986352], [28.9264179, 36.4982227], [28.9267699, 36.4978094], [28.9268628, 36.4977038], [28.9269541, 36.4975974], [28.9273158, 36.4971894], [28.9276758, 36.4967806], [28.9277708, 36.4966762], [28.9278642, 36.4965709], [28.9282338, 36.4961676], [28.9286017, 36.4957633], [28.9286987, 36.4956602], [28.9287942, 36.4955561], [28.9291716, 36.4951575], [28.9295474, 36.4947579], [28.9296464, 36.494656], [28.9297438, 36.4945531], [28.930129, 36.4941593], [28.9305126, 36.4937645], [28.9306136, 36.4936639], [28.930713, 36.4935622], [28.9311058, 36.4931733], [28.9314971, 36.4927834], [28.9316, 36.4926841], [28.9317014, 36.4925837], [28.9321018, 36.4921998], [28.9325006, 36.4918149], [28.9326055, 36.4917168], [28.9327089, 36.4916177], [28.9331167, 36.491239], [28.933523, 36.4908591], [28.9336297, 36.4907624], [28.933735, 36.4906646], [28.9341502, 36.490291], [28.9345638, 36.4899164], [28.9346725, 36.489821], [28.9347797, 36.4897246], [28.9352021, 36.4893563], [28.935623, 36.4889869], [28.9357335, 36.4888929], [28.9358426, 36.4887978], [28.9362721, 36.4884349], [28.9367002, 36.4880708], [28.9368125, 36.4879783], [28.9369234, 36.4878846], [28.93736, 36.4875271], [28.9377952, 36.4871685], [28.9379093, 36.4870774], [28.938022, 36.4869851], [28.9384655, 36.4866332], [28.9389076, 36.4862801], [28.9390235, 36.4861905], [28.939138, 36.4860996], [28.9395884, 36.4857533], [28.9400373, 36.4854059], [28.9401549, 36.4853177], [28.9402712, 36.4852283], [28.9407282, 36.4848878], [28.9411839, 36.484546], [28.9413033, 36.4844593], [28.9414213, 36.4843714], [28.9418849, 36.4840367], [28.9423472, 36.4837007], [28.9424682, 36.4836155], [28.9425879, 36.4835291], [28.943058, 36.4832003], [28.9435269, 36.4828702], [28.9436495, 36.4827866], [28.9437709, 36.4827017], [28.9442474, 36.4823788], [28.9447226, 36.4820547], [28.9448469, 36.4819726], [28.9449699, 36.4818893], [28.9454526, 36.4815724], [28.9459341, 36.4812544], [28.94606, 36.4811738], [28.9461846, 36.4810921], [28.9466735, 36.4807814], [28.9471611, 36.4804694], [28.9472885, 36.4803905], [28.9474147, 36.4803103], [28.9479096, 36.4800058], [28.9484033, 36.4797001], [28.9485322, 36.4796228], [28.94866, 36.4795442], [28.9491607, 36.479246], [28.9496603, 36.4789465], [28.9497908, 36.4788708], [28.94992, 36.4787939], [28.9504266, 36.478502], [28.9509319, 36.4782089], [28.9510638, 36.4781349], [28.9511946, 36.4780596], [28.9517068, 36.4777742], [28.9522178, 36.4774874], [28.9523511, 36.4774151], [28.9524833, 36.4773414], [28.953001, 36.4770625], [28.9535176, 36.4767823], [28.9536523, 36.4767117], [28.953786, 36.4766397], [28.954309, 36.4763673], [28.954831, 36.4760937], [28.9549671, 36.4760247], [28.9551021, 36.4759544], [28.9556305, 36.4756887], [28.9561577, 36.4754217], [28.9562952, 36.4753545], [28.9564315, 36.4752859], [28.956965, 36.4750269], [28.9574974, 36.4747665], [28.9576361, 36.4747011], [28.9577738, 36.4746342], [28.9583123, 36.474382], [28.9588497, 36.4741284], [28.9589897, 36.4740647], [28.9591287, 36.4739996], [28.959672, 36.4737542], [28.9602143, 36.4735074], [28.9603555, 36.4734455], [28.9604958, 36.4733821], [28.9610438, 36.4731436], [28.9615909, 36.4729037], [28.9617333, 36.4728436], [28.9618747, 36.472782], [28.9624274, 36.4725505], [28.962979, 36.4723175], [28.9631226, 36.4722591], [28.9632653, 36.4721994], [28.9638223, 36.4719748], [28.9643785, 36.4717489], [28.9645232, 36.4716923], [28.964667, 36.4716344], [28.9652284, 36.4714169], [28.9657889, 36.471198], [28.9659347, 36.4711433], [28.9660796, 36.4710872], [28.9666452, 36.4708768], [28.966988, 36.4707482], [28.9673254, 36.4706102], [28.9687273, 36.4700587], [28.9701397, 36.4695248], [28.9715623, 36.4690088], [28.9729948, 36.4685108], [28.9744368, 36.4680308], [28.9758879, 36.467569], [28.9773479, 36.4671255], [28.9788163, 36.4667004], [28.9802928, 36.4662938], [28.981777, 36.4659059], [28.9832685, 36.4655366], [28.9832998, 36.4655293], [28.9840471, 36.4652985], [28.9855225, 36.4648642], [28.9870062, 36.4644487], [28.9884978, 36.464052], [28.989997, 36.4636742], [28.9915035, 36.4633154], [28.9929275, 36.4629958], [28.9940393, 36.4626785], [28.995538, 36.4622722], [28.9970445, 36.4618851], [28.9985585, 36.4615172], [29.0000795, 36.4611686], [29.0016071, 36.4608394], [29.0027406, 36.4606107], [29.0028343, 36.4601792], [29.0031266, 36.4589473], [29.0034427, 36.4577193], [29.0037827, 36.4564953], [29.0041464, 36.4552758], [29.0045337, 36.4540609], [29.0049446, 36.4528511], [29.005379, 36.4516465], [29.0058366, 36.4504476], [29.0063175, 36.4492545], [29.0068216, 36.4480675], [29.0073486, 36.4468871], [29.0078984, 36.4457134], [29.008471, 36.4445467], [29.0086728, 36.4441535], [29.0089322, 36.4435349], [29.0094495, 36.4423612], [29.0099895, 36.441194], [29.0105519, 36.4400338], [29.0111365, 36.4388806], [29.0117434, 36.4377349], [29.0119521, 36.4373572], [29.0117033, 36.4369168], [29.0110796, 36.4357652], [29.0104784, 36.4346059], [29.0098998, 36.4334391], [29.0093439, 36.4322652], [29.0088109, 36.4310844], [29.008301, 36.4298971], [29.0078142, 36.4287034], [29.0073507, 36.4275038], [29.0069105, 36.4262984], [29.0064939, 36.4250876], [29.0061008, 36.4238717], [29.0057314, 36.422651], [29.0053857, 36.4214258], [29.0052406, 36.4208921], [29.0049644, 36.4198427], [29.0047683, 36.4190723], [29.0046344, 36.4185869], [29.004318, 36.4173485], [29.0040259, 36.4161062], [29.0038518, 36.4152959], [29.0036723, 36.4147879], [29.0032697, 36.4135765], [29.0028906, 36.4123602], [29.0025352, 36.4111392], [29.0022035, 36.4099139], [29.0018956, 36.4086846], [29.0016116, 36.4074515], [29.0013515, 36.406215], [29.0011154, 36.4049753], [29.0009034, 36.4037328], [29.0007156, 36.4024878], [29.0006047, 36.4016426], [29.0005388, 36.4012409], [29.0003585, 36.3999914], [29.0002026, 36.3987397], [29.0000711, 36.3974862], [28.9999639, 36.3962312], [28.9998812, 36.3949749], [28.9998229, 36.3937178], [28.9997891, 36.39246], [28.9997798, 36.391202], [28.9997949, 36.389944], [28.9998345, 36.3886863], [28.9998985, 36.3874292], [28.999987, 36.3861731], [29.0000999, 36.3849182], [29.0002372, 36.3836648], [29.0003988, 36.3824134], [29.0005848, 36.3811641], [29.000795, 36.3799173], [29.0010295, 36.3786733], [29.0012881, 36.3774323], [29.0015708, 36.3761948], [29.0018775, 36.3749609], [29.0022082, 36.373731], [29.0025628, 36.3725055], [29.0029412, 36.3712845], [29.0033432, 36.3700685], [29.0037689, 36.3688576], [29.004218, 36.3676523], [29.0046905, 36.3664527], [29.0051863, 36.3652592], [29.0056057, 36.3642998], [29.0058211, 36.3637318], [29.0063071, 36.3625194], [29.0068169, 36.3613133], [29.0073503, 36.3601138], [29.0079073, 36.3589213], [29.0084877, 36.357736], [29.0090914, 36.3565583], [29.0091313, 36.3564822], [29.0097504, 36.3553262], [29.010392, 36.3541781], [29.0110557, 36.3530382], [29.0117416, 36.3519069], [29.0124494, 36.3507843], [29.0131789, 36.3496707], [29.01393, 36.3485665], [29.0147025, 36.3474719], [29.0154962, 36.3463871], [29.0163108, 36.3453125], [29.0171463, 36.3442483], [29.0180023, 36.3431947], [29.0188787, 36.342152], [29.0197753, 36.3411205], [29.0206918, 36.3401004], [29.0216281, 36.339092], [29.0225838, 36.3380955], [29.0235588, 36.3371112], [29.0245528, 36.3361393], [29.0255656, 36.33518], [29.0265968, 36.3342336], [29.0276464, 36.3333003], [29.028714, 36.3323804], [29.0297993, 36.331474], [29.0309022, 36.3305815], [29.0320222, 36.3297029], [29.0331592, 36.3288386], [29.0343128, 36.3279887], [29.0354828, 36.3271535], [29.0366689, 36.3263331], [29.0378708, 36.3255278], [29.0390883, 36.3247377], [29.0403209, 36.3239631], [29.0405776, 36.3238044], [29.0417541, 36.3230879], [29.0429435, 36.3223856], [29.0441458, 36.3216975], [29.0453605, 36.3210238], [29.0458844, 36.3207423], [29.0461832, 36.3204882], [29.0472923, 36.3195746], [29.0484193, 36.3186753], [29.0495638, 36.3177905], [29.0507256, 36.3169205], [29.0519045, 36.3160655], [29.0531001, 36.3152257], [29.054312, 36.3144012], [29.0555401, 36.3135924], [29.056784, 36.3127994], [29.0580433, 36.3120224], [29.0587979, 36.311572], [29.0593828, 36.3109405], [29.0603417, 36.3099387], [29.0613199, 36.3089492], [29.0619313, 36.3083406], [29.0629296, 36.3073627], [29.0639468, 36.3063976], [29.0649827, 36.3054456], [29.0660372, 36.3045068], [29.0671098, 36.3035814], [29.0682004, 36.3026698], [29.0693086, 36.3017721], [29.0704342, 36.3008886], [29.071577, 36.3000194], [29.0727366, 36.2991649], [29.0739127, 36.2983251], [29.0751051, 36.2975004], [29.0763135, 36.2966909], [29.0775375, 36.2958968], [29.0787768, 36.2951183], [29.0800313, 36.2943557], [29.0813004, 36.293609], [29.082584, 36.2928785], [29.0838817, 36.2921644], [29.0851932, 36.2914669], [29.0865181, 36.290786], [29.0878562, 36.2901221], [29.0884668, 36.2898297], [29.088635, 36.2896663], [29.0896787, 36.2886856], [29.0907417, 36.2877185], [29.0918239, 36.2867653], [29.0929249, 36.2858262], [29.0940445, 36.2849015], [29.0951824, 36.2839913], [29.0963382, 36.283096], [29.0975117, 36.2822158], [29.0987027, 36.2813509], [29.0999107, 36.2805014], [29.1011354, 36.2796678], [29.1023766, 36.27885], [29.103634, 36.2780485], [29.1049071, 36.2772633], [29.1061957, 36.2764947], [29.1066078, 36.276253], [29.1078983, 36.2755087], [29.1092033, 36.274781], [29.1105224, 36.2740701], [29.1118555, 36.2733762], [29.113202, 36.2726995], [29.1145617, 36.2720401], [29.1159342, 36.2713982], [29.1173192, 36.270774], [29.1187164, 36.2701676], [29.1201253, 36.2695792], [29.1215456, 36.2690089], [29.122977, 36.2684569], [29.1244191, 36.2679232], [29.1258716, 36.2674082], [29.127334, 36.2669118], [29.128806, 36.2664342], [29.1302873, 36.2659755], [29.1317774, 36.2655359], [29.133276, 36.2651154], [29.1347826, 36.2647142], [29.136297, 36.2643323], [29.1368944, 36.2641859], [29.1383337, 36.2638426], [29.1397792, 36.2635168], [29.1400873, 36.2634513], [29.1407399, 36.2631737], [29.1421255, 36.2626062], [29.1433596, 36.2621201], [29.1443157, 36.2614762], [29.1455318, 36.2606829], [29.1467633, 36.259905], [29.1480097, 36.2591428], [29.1492707, 36.2583965], [29.1505462, 36.2576661], [29.1506642, 36.2575996], [29.1519692, 36.256877], [29.1532883, 36.2561712], [29.1546211, 36.2554822], [29.1559672, 36.2548105], [29.1573265, 36.254156], [29.1586984, 36.2535189], [29.1600827, 36.2528995], [29.1614789, 36.2522979], [29.1628869, 36.2517142], [29.1643061, 36.2511486], [29.1657363, 36.2506011], [29.1671771, 36.2500721], [29.1686281, 36.2495615], [29.1700889, 36.2490696], [29.1715593, 36.2485964], [29.1730387, 36.248142], [29.1745269, 36.2477067], [29.1760235, 36.2472904], [29.1775281, 36.2468933], [29.1790403, 36.2465155], [29.1802834, 36.2462223], [29.1805481, 36.2459318], [29.1809383, 36.2455174], [29.1811658, 36.2452568], [29.1814106, 36.2449719], [29.181617, 36.2447397], [29.1818208, 36.2445061], [29.1820737, 36.2442258], [29.1823241, 36.243944], [29.1825349, 36.2437145], [29.1827433, 36.2434835], [29.1830015, 36.2432064], [29.1832574, 36.2429279], [29.1834727, 36.2427011], [29.1836855, 36.2424727], [29.1839492, 36.242199], [29.1842104, 36.2419237], [29.1844301, 36.2416996], [29.1846473, 36.241474], [29.1849163, 36.2412036], [29.1851828, 36.2409317], [29.1854068, 36.2407104], [29.1856285, 36.2404875], [29.1859026, 36.2402206], [29.1861745, 36.2399521], [29.1864028, 36.2397336], [29.1866287, 36.2395136], [29.186908, 36.2392502], [29.1871851, 36.2389851], [29.1874176, 36.2387696], [29.1876478, 36.2385525], [29.1879322, 36.2382926], [29.1882144, 36.2380311], [29.188451, 36.2378186], [29.1886854, 36.2376044], [29.1889749, 36.2373482], [29.1892621, 36.2370903], [29.1895029, 36.2368807], [29.1897415, 36.2366696], [29.1900359, 36.236417], [29.1903281, 36.2361628], [29.1905729, 36.2359563], [29.1908155, 36.2357482], [29.1911148, 36.2354994], [29.1914119, 36.2352489], [29.1916608, 36.2350456], [29.2614928, 36.2927367], [29.2623085, 36.2934867], [29.2625084, 36.2936616], [29.2641016, 36.2944056], [29.2651514, 36.294541], [29.2666827, 36.2942406], [29.2684536, 36.293942], [29.2703885, 36.2938918], [29.2740318, 36.2939427], [29.276001, 36.2943535], [29.2777388, 36.2944295], [29.279448, 36.294177], [29.280866, 36.2938461], [29.2822225, 36.2938717], [29.2830301, 36.2941576], [29.2836582, 36.2945778], [29.2840377, 36.2949023], [29.2846986, 36.2956273], [29.285026, 36.296423], [29.2849189, 36.2983793], [29.2848497, 36.299102], [29.2846815, 36.2993868], [29.2837671, 36.3004379], [29.2832366, 36.3011462], [29.2833075, 36.3016066], [29.283701, 36.3022259], [29.2837375, 36.3026497], [29.2835203, 36.3029432], [29.2828622, 36.3031923], [29.2818558, 36.3030958], [29.2805083, 36.3030385], [29.279344, 36.3032596], [29.2772152, 36.3039865], [29.2761567, 36.3044238], [29.2755549, 36.304848], [29.2753792, 36.3053409], [29.2754062, 36.3059018], [29.2757194, 36.3063756], [29.2762803, 36.3068343], [29.2769582, 36.3071467], [29.2774676, 36.3072608], [29.2780772, 36.3071454], [29.2789045, 36.306691], [29.2796153, 36.3064147], [29.2802912, 36.306441], [29.2810109, 36.3063464], [29.2812856, 36.3061506], [29.2815274, 36.3059043], [29.281865, 36.3058565], [29.2821979, 36.3061163], [29.2824562, 36.3065492], [29.282489, 36.3073012], [29.282374, 36.3082042], [29.2824092, 36.308863], [29.2826506, 36.3096117], [29.2829296, 36.3101564], [29.2833092, 36.3105271], [29.283794, 36.3109375], [29.2841366, 36.3110983], [29.2845737, 36.3111671], [29.2851158, 36.3110485], [29.2858974, 36.3108704], [29.2864664, 36.3106112], [29.2867869, 36.3103448], [29.286942, 36.3100213], [29.2868831, 36.3094635], [29.2870925, 36.3088855], [29.2873935, 36.3082835], [29.2874985, 36.3079151], [29.2872687, 36.3075853], [29.2870651, 36.3072056], [29.2871016, 36.3068821], [29.287316, 36.3066175], [29.2877023, 36.3065293], [29.2880504, 36.3065642], [29.2886198, 36.3069032], [29.2889772, 36.3074181], [29.2895101, 36.3078232], [29.2900418, 36.3081818], [29.2910263, 36.308376], [29.2917196, 36.3085243], [29.2923269, 36.3086937], [29.2927247, 36.3088976], [29.2930658, 36.3092073], [29.2934673, 36.3096244], [29.2937134, 36.3101429], [29.2938939, 36.3104713], [29.294087, 36.3106181], [29.2946605, 36.3107787], [29.2950592, 36.3108416], [29.2956716, 36.3108119], [29.296145, 36.3106133], [29.2967903, 36.3104072], [29.2973029, 36.310408], [29.2977595, 36.3106967], [29.2980538, 36.3109976], [29.2983939, 36.3112932], [29.2988573, 36.3114375], [29.2993041, 36.3114148], [29.2999571, 36.3111796], [29.3003259, 36.310907], [29.3004942, 36.3107852], [29.301151, 36.310318], [29.3019638, 36.3100765], [29.302791, 36.3096248], [29.3029881, 36.3094198], [29.3032675, 36.3088895], [29.3039904, 36.3086958], [29.3045443, 36.3086145], [29.3051212, 36.3087662], [29.3055892, 36.3091986], [29.3057613, 36.3096893], [29.305817, 36.310416], [29.305657, 36.3110979], [29.3055081, 36.3116154], [29.3053981, 36.3120526], [29.3053531, 36.3126843], [29.3054824, 36.313144], [29.3057243, 36.3135254], [29.3063302, 36.3139654], [29.3067786, 36.3143234], [29.3073533, 36.314668], [29.3081164, 36.3151188], [29.3089434, 36.3155746], [29.3096207, 36.3158142], [29.3101225, 36.3160684], [29.3105147, 36.3163898], [29.310828, 36.3167731], [29.3111948, 36.3172714], [29.3115422, 36.3177581], [29.3117609, 36.3180431], [29.311932, 36.3182793], [29.3123428, 36.3186371], [29.3130042, 36.3191118], [29.3137103, 36.3193905], [29.3143375, 36.3197474], [29.3147127, 36.3200079], [29.3149085, 36.3204591], [29.3152902, 36.3214999], [29.3155882, 36.3223704], [29.3157328, 36.3230027], [29.3156315, 36.3236519], [29.3154127, 36.3243545], [29.3147688, 36.3254372], [29.3146207, 36.3259899], [29.3146703, 36.3262941], [29.3147746, 36.3266615], [29.3149217, 36.3269949], [29.3149868, 36.3274776], [29.31502, 36.3280894], [29.3149681, 36.3289213], [29.3147031, 36.329653], [29.3143285, 36.3299724], [29.3139403, 36.3301825], [29.3137315, 36.3304476], [29.3134874, 36.3307363], [29.3133357, 36.330979], [29.3133357, 36.3312804], [29.3134712, 36.3317267], [29.3136317, 36.3319532], [29.3142223, 36.3324389], [29.3145928, 36.3328249], [29.3149859, 36.3333692], [29.315091, 36.3336919], [29.3151587, 36.3340738], [29.3151853, 36.334558], [29.3151211, 36.3348852], [29.314868, 36.3353716], [29.3143693, 36.3360404], [29.3138183, 36.3365417], [29.31282, 36.337589], [29.3124813, 36.3381251], [29.3123046, 36.338685], [29.312123, 36.3406317], [29.3120294, 36.3427956], [29.3124301, 36.3445869], [29.3165066, 36.3480595], [29.3173052, 36.3492917], [29.3176017, 36.350466], [29.3175676, 36.3517489], [29.3158491, 36.354409], [29.3157891, 36.3551279], [29.3160544, 36.3560756], [29.3168267, 36.3574234], [29.3167899, 36.3584411], [29.3166621, 36.3592792], [29.3154773, 36.3605688], [29.3152676, 36.3617074], [29.3159525, 36.3631118], [29.3170182, 36.3638647], [29.3190001, 36.3646535], [29.3191893, 36.3652128], [29.3189752, 36.3659122], [29.3185659, 36.3664969], [29.3180709, 36.3665711], [29.3172411, 36.3660561], [29.3162932, 36.3660877], [29.3149258, 36.3677751], [29.3139519, 36.3681647], [29.3131548, 36.3682828], [29.3106647, 36.3703324], [29.3105682, 36.3708791], [29.3110497, 36.3714569], [29.3124511, 36.3714344], [29.3128459, 36.371428], [29.3132532, 36.3717844], [29.3132532, 36.372774], [29.3127055, 36.3736388], [29.3127055, 36.3746278], [29.3133318, 36.3755522], [29.3139105, 36.3759178], [29.3148414, 36.3761094], [29.3158877, 36.3763248], [29.3172492, 36.3766652], [29.3180464, 36.3772425], [29.3182196, 36.3779354], [29.317072, 36.3779539], [29.3165158, 36.3779628], [29.3159824, 36.3782766], [29.3153233, 36.3793853], [29.3157903, 36.3809031], [29.3159061, 36.3833934], [29.3165085, 36.3842252], [29.3163974, 36.3853647], [29.3158135, 36.3861153], [29.3146603, 36.3868186], [29.3140099, 36.3869605], [29.3138659, 36.3869919], [29.3130305, 36.3871741], [29.3129324, 36.3878614], [29.3135484, 36.3885083], [29.3149744, 36.3889539], [29.3153837, 36.3889262], [29.3160386, 36.388882], [29.318832, 36.3879955], [29.3202985, 36.3877738], [29.3215313, 36.3879745], [29.3237028, 36.3877429], [29.3243885, 36.3877429], [29.3246684, 36.3881753], [29.3246684, 36.390589], [29.3253489, 36.3925871], [29.3264788, 36.393197], [29.3265729, 36.3932478], [29.3317029, 36.3933902], [29.3317851, 36.3933925], [29.3328085, 36.3935651], [29.3341503, 36.3937914], [29.3350585, 36.3943143], [29.3352717, 36.3949139], [29.3355043, 36.395568], [29.3354042, 36.3959681], [29.3348766, 36.3961137], [29.3345979, 36.3961906], [29.334053, 36.3966483], [29.3338876, 36.3967873], [29.3330632, 36.3968178], [29.3329778, 36.3977435], [29.3328849, 36.3987495], [29.3325581, 36.3995394], [29.3300634, 36.400111], [29.3293544, 36.4010666], [29.329757, 36.4017478], [29.3310175, 36.4028652], [29.3313746, 36.4042017], [29.3299069, 36.4042017], [29.3273224, 36.4037228], [29.3249494, 36.403835], [29.3238538, 36.4042927], [29.323621, 36.4064025], [29.3246877, 36.409454], [29.3247722, 36.413399], [29.3256857, 36.4151462], [29.3258395, 36.416069], [29.3249992, 36.417989], [29.3253167, 36.4190983], [29.3261752, 36.4195582], [29.3250848, 36.4224258], [29.324283, 36.4236419], [29.3228083, 36.4247144], [29.3200181, 36.4262224], [29.3173177, 36.4282717], [29.3165421, 36.4295247], [29.3165421, 36.4309896], [29.3180159, 36.4315792], [29.3187596, 36.4335815], [29.3206859, 36.4356937], [29.3210687, 36.4373387], [29.321925, 36.4385509], [29.3236962, 36.43906], [29.3333285, 36.4385984], [29.3361097, 36.4361255], [29.3389546, 36.4368661], [29.3440475, 36.4439566], [29.3491513, 36.4463976], [29.3506792, 36.4499969], [29.3575733, 36.4546536], [29.3582641, 36.4585555], [29.3628583, 36.4627904], [29.3681251, 36.4660281], [29.3734908, 36.466027], [29.3831976, 36.4697425], [29.3933371, 36.4736079], [29.401433, 36.4740592], [29.4031356, 36.4735972], [29.4075672, 36.4723945], [29.4084117, 36.4685614], [29.4110866, 36.4684777], [29.4264301, 36.467501], [29.4345655, 36.4639238], [29.4366645, 36.4657481], [29.4394969, 36.4689922], [29.4417285, 36.4709248], [29.4441318, 36.4712009], [29.4473075, 36.4710629], [29.4432735, 36.4701656], [29.4413852, 36.4687161], [29.440441, 36.4670595], [29.4431018, 36.4681639], [29.4453334, 36.4689232], [29.4485091, 36.4691993], [29.4500541, 36.4699585], [29.4523715, 36.47127], [29.4547748, 36.4717531], [29.4564056, 36.4703727], [29.4579505, 36.4694064], [29.4610404, 36.4705797], [29.4646453, 36.4705797], [29.4691943, 36.47127], [29.4731425, 36.471339], [29.4771766, 36.4718221], [29.4802665, 36.4720292], [29.484558, 36.4746519], [29.4869613, 36.4766534], [29.490652, 36.4799661], [29.4942569, 36.4850039], [29.4976901, 36.4878333], [29.5036983, 36.4888684], [29.5087623, 36.4894204], [29.5135688, 36.4905935], [29.5179462, 36.4917665], [29.5204352, 36.4939056], [29.5233535, 36.4979765], [29.5242976, 36.5018403], [29.5260142, 36.504807], [29.5267867, 36.5068077], [29.5252418, 36.5077736], [29.5223235, 36.5066007], [29.5200919, 36.5074286], [29.5177745, 36.5095672], [29.5136546, 36.5086704], [29.5091914, 36.5083255], [29.5065307, 36.5105331], [29.5034408, 36.5121197], [29.5031833, 36.5134994], [29.5048141, 36.5156379], [29.5069598, 36.5170865], [29.5073032, 36.5193628], [29.5042991, 36.5219149], [29.5036124, 36.5248119], [29.5049857, 36.5283984], [29.5040416, 36.5308813], [29.5062732, 36.5329503], [29.5079898, 36.5349503], [29.507389, 36.5369503], [29.5052432, 36.5389501], [29.5041274, 36.5404673], [29.5051574, 36.5423292], [29.5074748, 36.5440531], [29.5089339, 36.5455701], [29.5079898, 36.5488799], [29.5074748, 36.550121], [29.5074748, 36.5517758], [29.5098781, 36.5539132], [29.5127963, 36.5557058], [29.5137405, 36.5588083], [29.5121097, 36.5620486], [29.5122813, 36.5656334], [29.5140838, 36.5690112], [29.5170879, 36.5716996], [29.5206069, 36.57425], [29.5244693, 36.5756976], [29.5274734, 36.5758354], [29.5303916, 36.5740433], [29.5336532, 36.5727336], [29.5370006, 36.5730093], [29.5412063, 36.5738365], [29.5446395, 36.5761111], [29.5473003, 36.5782478], [29.5522784, 36.5796953], [29.5551108, 36.5811427], [29.5567416, 36.5844509], [29.5567416, 36.5882414], [29.5598315, 36.5912737], [29.5642089, 36.5939613], [29.566698, 36.5947883], [29.5685004, 36.5923763], [29.5723628, 36.5897576], [29.5748519, 36.5873455], [29.5776843, 36.586932], [29.5806026, 36.5883793], [29.582405, 36.5912048], [29.5840358, 36.5930655], [29.5865249, 36.5964421], [29.5898723, 36.5988539], [29.5933913, 36.6010589], [29.5955371, 36.6039529], [29.5957946, 36.6071913], [29.5941638, 36.6103606], [29.5955371, 36.6138054], [29.5969104, 36.61663], [29.6008586, 36.6196611], [29.6069526, 36.6193167], [29.6096133, 36.6173189], [29.6130466, 36.6186967], [29.6165656, 36.6189034], [29.618883, 36.6168366], [29.6202563, 36.6140121], [29.6218013, 36.6104984], [29.6239471, 36.6081558], [29.6268653, 36.6067779], [29.6285819, 36.6096716], [29.6289252, 36.6121519], [29.6315002, 36.6158033], [29.6329593, 36.6198678], [29.6348476, 36.6242077], [29.6348476, 36.6262742], [29.6322726, 36.6297183], [29.631071, 36.6319224], [29.6293544, 36.6341264], [29.6260928, 36.6351596], [29.6240329, 36.6366748], [29.6225738, 36.6391542], [29.6227454, 36.6434241], [29.6224879, 36.646041], [29.6212005, 36.6483824], [29.6252345, 36.6526518], [29.6284103, 36.6521009], [29.6312427, 36.6496219], [29.6355342, 36.6456278], [29.6391391, 36.6420468], [29.641199, 36.6378456], [29.6469497, 36.6314402], [29.6534726, 36.6359174], [29.6591376, 36.6341265], [29.6644591, 36.6337132], [29.6672056, 36.6357795], [29.6697806, 36.6401873], [29.6730421, 36.6401873], [29.6752737, 36.6375702], [29.6797369, 36.6361928], [29.6845434, 36.6386722], [29.6857451, 36.6421157], [29.6823118, 36.6450081], [29.6795653, 36.6463854], [29.6788786, 36.6502418], [29.6797369, 36.652583], [29.6780203, 36.6550619], [29.6799086, 36.6591932], [29.6819685, 36.663462], [29.678707, 36.6678683], [29.6742438, 36.6706221], [29.6728705, 36.6715859], [29.6680639, 36.675854], [29.6684073, 36.6802595], [29.6685789, 36.6830129], [29.6663473, 36.6876933], [29.6644591, 36.6919605], [29.6610258, 36.6954016], [29.6567343, 36.6982921], [29.6531294, 36.7024211], [29.6581076, 36.7058617], [29.6601675, 36.7093022], [29.6615408, 36.7163204], [29.6632574, 36.7215492], [29.6648024, 36.7263649], [29.6642874, 36.7298045], [29.6610258, 36.7329688], [29.6570776, 36.7354451], [29.6570776, 36.7379213], [29.6598242, 36.7419106], [29.6632574, 36.7447993], [29.666004, 36.7523644], [29.6685789, 36.7571781], [29.6733854, 36.761304], [29.675617, 36.7644669], [29.6775053, 36.7677673], [29.6809385, 36.7728551], [29.6847151, 36.7769801], [29.686775, 36.7811049], [29.6924399, 36.7813798], [29.697933, 36.7822048], [29.7017096, 36.7859168], [29.7078894, 36.787704], [29.7126959, 36.7861918], [29.7166441, 36.7863293], [29.719734, 36.7914158], [29.720764, 36.7960897], [29.7205923, 36.8015879], [29.7209356, 36.8076356], [29.7193907, 36.8107966], [29.7226523, 36.8134079], [29.7271155, 36.821241], [29.7302054, 36.8263253], [29.7362135, 36.8311344], [29.741535, 36.8367675], [29.742565, 36.8419881], [29.7461699, 36.8480325], [29.7504614, 36.850093], [29.7573279, 36.8507799], [29.762306, 36.8502304], [29.764881, 36.8522908], [29.7647093, 36.8551754], [29.7686575, 36.8586092], [29.773464, 36.8614935], [29.7770689, 36.8647896], [29.7770689, 36.8684977], [29.7765539, 36.8719309], [29.7727774, 36.874952], [29.7710608, 36.8786596], [29.7715758, 36.8814058], [29.7677992, 36.885113], [29.7715758, 36.8915659], [29.7758673, 36.8919778], [29.7791289, 36.8923897], [29.7803305, 36.8963709], [29.7870253, 36.9002147], [29.7908104, 36.9036763], [29.7842892, 36.9098909], [29.7859953, 36.9147644], [29.7904585, 36.9198424], [29.7925184, 36.9229989], [29.7932051, 36.9258807], [29.7906302, 36.9310952], [29.786167, 36.9342512], [29.7832487, 36.9372698], [29.7806738, 36.9408372], [29.7818754, 36.9452275], [29.7853087, 36.9501663], [29.7835921, 36.9531843], [29.7796438, 36.9531843], [29.7767256, 36.9523612], [29.7726057, 36.9551048], [29.7662543, 36.9574367], [29.7624777, 36.9599058], [29.7585433, 36.9633571], [29.6748193, 36.9780087], [29.6490829, 36.980469], [29.6027335, 36.9689164], [29.5928, 36.9644318], [29.5825784, 36.9608895], [29.570795, 36.9531734], [29.5489711, 36.9350731], [29.5427946, 36.9278318], [29.5360004, 36.9164747], [29.5308532, 36.9057744], [29.529412, 36.8973778], [29.5296179, 36.8865102], [29.5279708, 36.8753116], [29.524059, 36.866088], [29.5176765, 36.8557102], [29.5086176, 36.8474728], [29.5001763, 36.8412118], [29.4922504, 36.8387349], [29.4849468, 36.8388017], [29.4840966, 36.8398067], [29.4810114, 36.8401323], [29.4756565, 36.8407677], [29.471476, 36.8374664], [29.4691889, 36.8359663], [29.4644115, 36.8360392], [29.4587192, 36.8346893], [29.4530269, 36.83258], [29.447967, 36.8292894], [29.4428084, 36.8237257], [29.4395142, 36.8170013], [29.4362201, 36.8081663], [29.4325965, 36.803023], [29.4281493, 36.799594], [29.4228457, 36.7982264], [29.4177859, 36.7981724], [29.4121189, 36.7987666], [29.4049676, 36.8006033], [29.3951642, 36.804908], [29.3817767, 36.8124194], [29.3779818, 36.8155419], [29.3733436, 36.8210271], [29.3727112, 36.8241493], [29.3748194, 36.8292964], [29.3746086, 36.8341056], [29.3731328, 36.8393364], [29.3703921, 36.8423735], [29.3653322, 36.846254], [29.3451983, 36.8555326], [29.3359219, 36.8620271], [29.3297025, 36.8680149], [29.3269618, 36.8728217], [29.3255914, 36.8783028], [29.3256968, 36.8836149], [29.3284376, 36.889854], [29.3398222, 36.9046065], [29.3451584, 36.9261416], [29.3408382, 36.9250565], [29.3369948, 36.921984], [29.3366105, 36.9175797], [29.331614, 36.9185015], [29.3298204, 36.9214718], [29.3290517, 36.9266952], [29.3254645, 36.9242372], [29.3257207, 36.9179894], [29.3200837, 36.9155311], [29.3145748, 36.9166579], [29.3097064, 36.9192185], [29.3039413, 36.9190137], [29.299073, 36.9174773], [29.2898487, 36.921267], [29.2831868, 36.9222912], [29.2790871, 36.9211646], [29.2785747, 36.9185015], [29.2624877, 36.8612417], [29.2594597, 36.8612901], [29.2550668, 36.8612225], [29.2485928, 36.85883], [29.2411162, 36.859534], [29.2363052, 36.8567274], [29.2239633, 36.8535632], [29.2203401, 36.8466001], [29.2111014, 36.8476204], [29.1959952, 36.8557248], [29.1832922, 36.8583345], [29.1791282, 36.8675059], [29.1766912, 36.8739931], [29.1688557, 36.8768481], [29.1589164, 36.8796928], [29.1541098, 36.8809938], [29.1477583, 36.8875844], [29.1437649, 36.8946693], [29.1264297, 36.9011421], [29.1172369, 36.9031482], [29.1104652, 36.9057073], [29.1068571, 36.9107778], [29.1058361, 36.9182987], [29.1084696, 36.9271927], [29.1043391, 36.9313038], [29.0978053, 36.9432847], [29.0972928, 36.951578], [29.099727, 36.9593587], [29.1031861, 36.9618155], [29.0998551, 36.9683668], [29.0999832, 36.9733823], [29.1016487, 36.9767598], [29.1177911, 36.9701069], [29.1372645, 36.9776809], [29.1436702, 36.9827981], [29.1351883, 36.9900257], [29.1279122, 37.0054118], [29.1236844, 37.0094018], [29.1222751, 37.0168696], [29.1232281, 37.0234121], [29.1187725, 37.0242783], [29.1032896, 37.0255892], [29.091783, 37.0290124], [29.0922997, 37.0318004], [29.0876769, 37.0338714], [29.0874236, 37.0362764], [29.0864753, 37.0399692], [29.0878486, 37.0438057], [29.0828704, 37.0448333], [29.0792655, 37.0447648], [29.0772914, 37.0442168], [29.0705966, 37.0440797], [29.0675925, 37.0436687], [29.0683195, 37.0429705], [29.0696525, 37.0424184], [29.0700817, 37.0417333], [29.0699959, 37.0409797], [29.0690946, 37.0400205], [29.0685367, 37.0399349], [29.0675282, 37.0399349], [29.0674209, 37.0394553], [29.066863, 37.0390956], [29.066627, 37.0385132], [29.0654683, 37.0373656], [29.0650821, 37.0364407], [29.0656185, 37.0347963], [29.065125, 37.0340427], [29.0639448, 37.0333746], [29.0632796, 37.0332204], [29.0623569, 37.0331519], [29.0616059, 37.0324839], [29.0609836, 37.0315075], [29.0609836, 37.0307195], [29.0614986, 37.0299658], [29.0630114, 37.0281928], [29.0629476, 37.0270662], [29.0627244, 37.0272303], [29.0623107, 37.0275579], [29.0615731, 37.0279059], [29.0610042, 37.0279805], [29.0606454, 37.0279036], [29.060399, 37.0275495], [29.0602055, 37.0275667], [29.0599637, 37.0278435], [29.0594105, 37.0285883], [29.0594187, 37.0289849], [29.0593351, 37.029163], [29.0589493, 37.029163], [29.0583622, 37.0288617], [29.057618, 37.0286397], [29.0573445, 37.0287333], [29.0571164, 37.0289934], [29.0568308, 37.0293554], [29.0563972, 37.029615], [29.0560243, 37.0300293], [29.0561469, 37.0304533], [29.0561638, 37.0307106], [29.0561236, 37.0308774], [29.0562219, 37.0310042], [29.0571266, 37.0313752], [29.0576836, 37.03184], [29.0578153, 37.0321418], [29.0576015, 37.0323671], [29.0573774, 37.0330431], [29.0566915, 37.0341047], [29.0559167, 37.0347568], [29.054806, 37.0349382], [29.0536457, 37.0349114], [29.0527513, 37.0344308], [29.0522912, 37.034302], [29.0515601, 37.0345839], [29.050531, 37.0349323], [29.050441, 37.0351674], [29.0500934, 37.0354185], [29.0500191, 37.0358997], [29.0497893, 37.0362242], [29.0488895, 37.0360413], [29.0472196, 37.0360545], [29.0468371, 37.036247], [29.0462249, 37.036267], [29.0449145, 37.03655], [29.0441804, 37.0374191], [29.0438124, 37.0379999], [29.0429576, 37.0385876], [29.0422002, 37.0384993], [29.0413937, 37.038211], [29.0406869, 37.0377264], [29.0403735, 37.0376367], [29.0393414, 37.037743], [29.0383493, 37.0374701], [29.0369853, 37.0374965], [29.0351405, 37.0380247], [29.0347418, 37.0384144], [29.0345832, 37.0389943], [29.034339, 37.0391752], [29.0333217, 37.0394348], [29.032839, 37.0397138], [29.0321213, 37.039907], [29.0314893, 37.0401755], [29.0313209, 37.040406], [29.0311531, 37.0411026], [29.030206, 37.0415977], [29.0299708, 37.0418242], [29.0295642, 37.0428641], [29.0292396, 37.0435085], [29.0291466, 37.043758], [29.0286886, 37.0441778], [29.0281143, 37.0443572], [29.0274007, 37.0450184], [29.0273505, 37.0456267], [29.0268793, 37.0458751], [29.0266752, 37.046227], [29.0263904, 37.0469155], [29.0253439, 37.047711], [29.0252694, 37.0482594], [29.0249152, 37.048717], [29.0245993, 37.049009], [29.024398, 37.0492969], [29.0233647, 37.0499154], [29.0227512, 37.0506432], [29.0224073, 37.0510381], [29.0216912, 37.05149], [29.0213293, 37.0518905], [29.0211706, 37.0522104], [29.0208849, 37.052471], [29.0209321, 37.052691], [29.021399, 37.0537024], [29.0214323, 37.0545934], [29.021773, 37.0555419], [29.0219818, 37.0564478], [29.0220157, 37.0569014], [29.0214276, 37.0576524], [29.0203824, 37.058771], [29.0202247, 37.0598107], [29.0199713, 37.0603568], [29.0190113, 37.0610041], [29.019051, 37.061315], [29.0193701, 37.0620118], [29.0188763, 37.0629067], [29.0188355, 37.0632972], [29.0191446, 37.0640904], [29.0189089, 37.0646546], [29.0187909, 37.0650176], [29.0184002, 37.0653825], [29.0182175, 37.0660913], [29.0177998, 37.0666535], [29.0181985, 37.0671174], [29.0179928, 37.0674528], [29.0170855, 37.0675126], [29.0169234, 37.0677837], [29.0172599, 37.0683533], [29.0174911, 37.0689335], [29.0173794, 37.0691856], [29.0169099, 37.0693374], [29.016349, 37.0690434], [29.0151959, 37.0690876], [29.0148612, 37.0692106], [29.0146566, 37.0696738], [29.0147024, 37.0699466], [29.0149744, 37.0702522], [29.0148011, 37.0704578], [29.0140462, 37.0705116], [29.0131501, 37.0702703], [29.0126907, 37.070308], [29.0125885, 37.0705262], [29.0132187, 37.0719783], [29.0136673, 37.0725296], [29.0136893, 37.0730129], [29.0127178, 37.0734369], [29.0111024, 37.0737686], [29.009487, 37.074722], [29.0088292, 37.0748077], [29.0075606, 37.074878], [29.0071973, 37.0757259], [29.0068505, 37.0760027], [29.0063222, 37.0761938], [29.0063249, 37.0762904], [29.0073321, 37.0767978], [29.0074285, 37.0775711], [29.0068698, 37.0782081], [29.0062589, 37.0786738], [29.0054223, 37.0791922], [29.0043545, 37.0797698], [29.0036582, 37.0798423], [29.0031188, 37.0802114], [29.002728, 37.0807759], [29.0020593, 37.0808154], [29.0015557, 37.0807341], [29.0012618, 37.0809345], [29.0011451, 37.0811978], [29.0011451, 37.082973], [29.0012698, 37.0836183], [29.0010164, 37.0845588], [29.000574, 37.0849023], [28.9994116, 37.0851174], [28.9986675, 37.0861831], [28.9984215, 37.0867782], [28.9965417, 37.0884576], [28.9964536, 37.0888251], [28.9969294, 37.0898096], [28.9968507, 37.0905307], [28.9971338, 37.0912151], [28.9970621, 37.0916943], [28.9969423, 37.0922671], [28.9963995, 37.0927209], [28.9951154, 37.0931269], [28.9940779, 37.0935938], [28.9938077, 37.0938123], [28.9920818, 37.0939595], [28.991378, 37.0942567], [28.9905309, 37.0951277], [28.9891539, 37.0962387], [28.9888861, 37.096505], [28.9888684, 37.0968031], [28.9878768, 37.0975466], [28.98769, 37.0978213], [28.9877617, 37.0981251], [28.9868577, 37.0992225], [28.9859569, 37.0999021], [28.9852351, 37.0999513], [28.9845655, 37.0995673], [28.9821134, 37.0992515], [28.9813441, 37.0994814], [28.9805447, 37.0994827], [28.9802835, 37.0990861], [28.9797595, 37.0989585], [28.9794777, 37.0990835], [28.9791504, 37.0996827], [28.9782054, 37.0998439], [28.9772731, 37.1003981], [28.9757073, 37.1007659], [28.9752359, 37.1010799], [28.974152, 37.101619], [28.9736869, 37.1021228], [28.9736708, 37.1023778], [28.9743179, 37.1031434], [28.9742928, 37.1036908], [28.9736039, 37.1043585], [28.9730238, 37.1052687], [28.9734059, 37.1057939], [28.9730991, 37.1066907], [28.9732441, 37.1069711], [28.9734979, 37.1078991], [28.9735286, 37.1088783], [28.9736123, 37.109172], [28.9734951, 37.1095392], [28.9739274, 37.1098797], [28.9740073, 37.1103541], [28.9735522, 37.1110645], [28.9734533, 37.1122459], [28.9726822, 37.1130573], [28.9725648, 37.1138361], [28.9726967, 37.114318], [28.9719882, 37.1156104], [28.9706682, 37.1166243], [28.9693493, 37.1167885], [28.9686021, 37.1169772], [28.9679069, 37.1175584], [28.9667913, 37.1181101], [28.9660287, 37.1188466], [28.9657514, 37.1191626], [28.9651643, 37.1195807], [28.9650892, 37.1202402], [28.9651045, 37.1207959], [28.9638317, 37.1220509], [28.9627954, 37.1234077], [28.9626871, 37.123804], [28.9608331, 37.1243064], [28.9593607, 37.1244318], [28.9528916, 37.1318771], [28.9514301, 37.1332408], [28.9474606, 37.1367606], [28.943026, 37.1372668], [28.9399439, 37.1362904], [28.9281146, 37.1400624], [28.9117902, 37.1385536], [28.9132097, 37.1404396], [28.9096609, 37.1438342], [28.905639, 37.1438342], [28.9009306, 37.1384598], [28.8988922, 37.1402326], [28.8944446, 37.1363916], [28.8777661, 37.1371302], [28.8762836, 37.1399371], [28.8703535, 37.1393462], [28.8672031, 37.1368348], [28.8598667, 37.1361599], [28.8575667, 37.1359483], [28.8462624, 37.1326981], [28.8379232, 37.1343232], [28.8351435, 37.1391985], [28.8373673, 37.1433347], [28.8356994, 37.1465846], [28.8352585, 37.156319], [28.8274753, 37.1603067], [28.8298844, 37.1634081], [28.8282165, 37.167543], [28.8189507, 37.175517], [28.8178388, 37.178913], [28.8011604, 37.1790607], [28.7968981, 37.183933], [28.7928212, 37.1857046], [28.7911533, 37.189986], [28.7848526, 37.1963338], [28.7833701, 37.201943], [28.7854086, 37.2068139], [28.7818876, 37.2096181], [28.7831848, 37.2167022], [28.7820729, 37.2205391], [28.7785519, 37.2230477], [28.780961, 37.2274745], [28.7785519, 37.2304256], [28.780165, 37.2345121], [28.7819477, 37.2360982], [28.7804513, 37.236602], [28.7795709, 37.2376504], [28.7818354, 37.2391477], [28.7822649, 37.2407055], [28.782109, 37.241296], [28.78069, 37.2424912], [28.7789758, 37.242215], [28.7775888, 37.2440479], [28.7764911, 37.2438138], [28.7729528, 37.246778], [28.7674699, 37.2445809], [28.7667063, 37.2448088], [28.7669449, 37.2459106], [28.7664676, 37.2468604], [28.7645586, 37.2477722], [28.7618262, 37.2473519], [28.7635563, 37.2495197], [28.7631707, 37.2518173], [28.7640349, 37.2529614], [28.7635563, 37.2549521], [28.7605483, 37.2572818], [28.755758, 37.2625846], [28.7529783, 37.2665667], [28.7482548, 37.268426], [28.7469096, 37.2684082], [28.7454923, 37.2677636], [28.7448037, 37.268212], [28.7405734, 37.2672824], [28.7397215, 37.268811], [28.7382028, 37.2689722], [28.7364976, 37.2704529], [28.7348135, 37.2735321], [28.7372168, 37.2753079], [28.7394162, 37.276597], [28.7392768, 37.2777239], [28.7375494, 37.2806265], [28.7320669, 37.2843227], [28.7320669, 37.2866446], [28.7301787, 37.2889664], [28.729492, 37.2916978], [28.7301787, 37.2929269], [28.7324103, 37.2930635], [28.7339552, 37.2929269], [28.7351568, 37.2936097], [28.7348135, 37.2966141], [28.7336119, 37.2982527], [28.7332144, 37.2997548], [28.7343716, 37.3008295], [28.7365301, 37.3013934], [28.7374366, 37.3028435], [28.7373456, 37.3044316], [28.7371622, 37.3053906], [28.7377318, 37.3071283], [28.7379034, 37.3082206], [28.7367018, 37.309859], [28.736438, 37.3129912], [28.7365713, 37.3146191], [28.7371293, 37.3158968], [28.7403683, 37.3169667], [28.7408217, 37.3180506], [28.7412164, 37.3204733], [28.7407347, 37.323821], [28.7384591, 37.3253428], [28.7361868, 37.3262413], [28.7347452, 37.3268493], [28.7332323, 37.3275429], [28.7318078, 37.3289788], [28.7306867, 37.3299198], [28.7298675, 37.3311878], [28.7285241, 37.3334582], [28.7275823, 37.3347553], [28.7261358, 37.3350513], [28.722435, 37.3343278], [28.7204677, 37.3355817], [28.7173476, 37.3379268], [28.7165483, 37.339696], [28.7169607, 37.3409823], [28.7175756, 37.3428047], [28.7174828, 37.3462195], [28.7156479, 37.350716], [28.7142141, 37.3539126], [28.7128408, 37.3556353], [28.7084206, 37.3575881], [28.7067898, 37.3596263], [28.7050624, 37.363387], [28.7009962, 37.3656808], [28.6974111, 37.3658987], [28.6941298, 37.36418], [28.6896666, 37.3633614], [28.68692, 37.3644529], [28.6851176, 37.3660389], [28.6834868, 37.3660901], [28.6807402, 37.3670451], [28.6805148, 37.3684179], [28.6799463, 37.3685373], [28.6750754, 37.3678637], [28.6714705, 37.3695008], [28.6678656, 37.3712743], [28.666149, 37.3730478], [28.6637457, 37.3729113], [28.6587675, 37.3719564], [28.6565359, 37.3737299], [28.6543043, 37.3737299], [28.6515578, 37.3725021], [28.6503561, 37.3715471], [28.6493262, 37.3684094], [28.6474379, 37.3663629], [28.6458929, 37.3656808], [28.6445196, 37.3658172], [28.644348, 37.3674544], [28.644348, 37.3686822], [28.6410864, 37.3705922], [28.6400564, 37.3719564], [28.6398848, 37.3733206], [28.6401996, 37.3742177], [28.6428212, 37.3738856], [28.6440947, 37.3743283], [28.6445563, 37.3751759], [28.6441953, 37.3760621], [28.6440187, 37.3789973], [28.6396419, 37.3786068], [28.6344222, 37.3835855], [28.6407961, 37.3839025], [28.6315883, 37.3905325], [28.6335335, 37.3941574], [28.627596, 37.3984212], [28.6254136, 37.4038982], [28.627871, 37.4102972], [28.6270775, 37.4143752], [28.6254683, 37.4179966], [28.6174496, 37.4223733], [28.6150497, 37.4256009], [28.614192, 37.4309438], [28.6164665, 37.4353058], [28.6186911, 37.4423583], [28.6231085, 37.4451065], [28.622106, 37.4489691], [28.6221742, 37.4506386], [28.6269378, 37.4506727], [28.6295281, 37.4533248], [28.6284828, 37.4576566], [28.630414, 37.4586445], [28.6309485, 37.4623214], [28.6274528, 37.4652871], [28.6297273, 37.4678758], [28.6292943, 37.4690907], [28.6270197, 37.4693856], [28.6277205, 37.4709597], [28.6286351, 37.4771915], [28.6272388, 37.4774168], [28.6258116, 37.4743341], [28.6240086, 37.4748144], [28.6238112, 37.4777225], [28.619286, 37.4776205], [28.6145624, 37.4834369], [28.6137621, 37.4861167], [28.607842, 37.4811073], [28.6027815, 37.4790882], [28.5933048, 37.4796401], [28.5860915, 37.4719974], [28.5735278, 37.4715023], [28.5645257, 37.4727246], [28.5579558, 37.4715222], [28.5519076, 37.4716636], [28.5228187, 37.4740834], [28.5075194, 37.4687827], [28.4975653, 37.4752828], [28.4930181, 37.4831187], [28.4781405, 37.482864], [28.4701795, 37.4919604], [28.4695427, 37.4947396], [28.4634923, 37.4967608], [28.4634492, 37.5035056], [28.4669951, 37.5091394], [28.4580756, 37.5117706], [28.4512048, 37.5073757], [28.4201613, 37.5081005], [28.411445, 37.5130982], [28.402108, 37.5149576], [28.4002939, 37.5171139], [28.3907228, 37.5146422], [28.3891648, 37.5163194], [28.3835291, 37.5131527], [28.3751421, 37.5156132], [28.3731388, 37.5143774], [28.3677968, 37.5173787], [28.3685981, 37.5199386], [28.3631671, 37.5212802], [28.3633892, 37.5196995], [28.357469, 37.5226219], [28.3564896, 37.5259407], [28.3503659, 37.5261496], [28.3463764, 37.527326], [28.3426895, 37.5291887], [28.3325383, 37.5309633], [28.3185423, 37.5292174], [28.3110828, 37.5236105], [28.3026901, 37.5154604], [28.2980031, 37.5122163], [28.2893568, 37.509407], [28.2808116, 37.5120998], [28.2779246, 37.5149072], [28.2776954, 37.5235399], [28.2780469, 37.542279], [28.2825881, 37.5480466], [28.2848357, 37.5554721], [28.2891183, 37.5673103], [28.2882903, 37.5749985], [28.2818513, 37.5816518], [28.2749354, 37.5910148], [28.2694504, 37.5926004], [28.2488103, 37.6017545], [28.2507032, 37.5991269], [28.2505293, 37.5916079], [28.2487053, 37.5741314], [28.2527238, 37.5628832], [28.2518679, 37.5541454], [28.2505773, 37.5457304], [28.2494534, 37.5452391], [28.2494032, 37.5447885], [28.2506736, 37.5441656], [28.2502963, 37.5430429], [28.2487547, 37.5428824], [28.2485549, 37.5423138], [28.2493898, 37.5422351], [28.2488651, 37.5412628], [28.248901, 37.5407578], [28.2494026, 37.5407857], [28.2497217, 37.5405889], [28.2497453, 37.5400219], [28.2493494, 37.5396424], [28.2495858, 37.5394783], [28.2495871, 37.539063], [28.250094, 37.5388037], [28.2497375, 37.5378303], [28.2509911, 37.5365446], [28.2492862, 37.5349806], [28.2479824, 37.535988], [28.245542, 37.5352722], [28.2468124, 37.5341853], [28.2447063, 37.5328465], [28.2428342, 37.5329393], [28.2435529, 37.5318789], [28.2429345, 37.5311101], [28.2421656, 37.5311764], [28.2418981, 37.5305799], [28.2422491, 37.5299701], [28.2415638, 37.5291218], [28.2367497, 37.5290474], [28.228552, 37.5170732], [28.2321158, 37.5073555], [28.2250182, 37.4996074], [28.233058, 37.4884638], [28.2349286, 37.4798298], [28.2483386, 37.4717247], [28.2453345, 37.4699536], [28.245077, 37.4681824], [28.2423305, 37.4665474], [28.2406997, 37.4677737], [28.235464, 37.4665474], [28.2321166, 37.4675693], [28.2253607, 37.4619414], [28.2194995, 37.4627323], [28.2164096, 37.4650487], [28.2089561, 37.4651896], [28.2061453, 37.4674868], [28.2059132, 37.4707716], [28.2039304, 37.477], [28.1981963, 37.4795504], [28.192623, 37.4800504], [28.189499, 37.4797], [28.177669, 37.4805439], [28.1736279, 37.4777885], [28.1689629, 37.4782181], [28.1638182, 37.4843451], [28.1605521, 37.4878819], [28.1553268, 37.4877712], [28.1530037, 37.4843524], [28.1548962, 37.4802766], [28.1572447, 37.4728606], [28.1575199, 37.4687238], [28.1540589, 37.4578324], [28.1497466, 37.4545201], [28.1485317, 37.4502281], [28.1404155, 37.4536169], [28.1342227, 37.4538018], [28.1154727, 37.4559874], [28.1083644, 37.4524931], [28.1041175, 37.45542], [28.1000895, 37.4529457], [28.0905818, 37.4558511], [28.0912685, 37.4574863], [28.0896274, 37.4604939], [28.0893688, 37.4632777], [28.0827712, 37.4620511], [28.0786513, 37.4602116], [28.0768489, 37.4632774], [28.0718707, 37.4647762], [28.0699824, 37.4627323], [28.0649184, 37.4626642], [28.0629443, 37.461506], [28.0597385, 37.4658028], [28.0561637, 37.4660705], [28.0493831, 37.4610973], [28.0472373, 37.4563962], [28.0375529, 37.4516526], [28.0290444, 37.4681946], [28.0075909, 37.4695021], [27.9986571, 37.4624599], [27.9881728, 37.4604403], [27.979946, 37.4687274], [27.9734228, 37.4677737], [27.9656103, 37.4735692], [27.9461954, 37.4727819], [27.938982, 37.4770753], [27.93955, 37.4834988], [27.9414917, 37.4873412], [27.9388432, 37.4968587], [27.9221559, 37.4964201], [27.9033043, 37.5010686], [27.8976669, 37.50055], [27.8944178, 37.4893083], [27.8918009, 37.4849131], [27.8887834, 37.4798446], [27.8737531, 37.4790359], [27.861615, 37.4753176], [27.8505707, 37.4768121], [27.8431027, 37.4761148], [27.8419091, 37.4760034], [27.8361055, 37.4687459], [27.8347761, 37.4565923], [27.8284073, 37.4489073], [27.82051, 37.4466826], [27.8106628, 37.4485543], [27.8033689, 37.4557701], [27.790411, 37.4664035], [27.7769802, 37.4706698], [27.7654645, 37.4793826], [27.7707214, 37.4924943], [27.77337, 37.5106336], [27.7623531, 37.5109977], [27.7483313, 37.5269542], [27.729245, 37.5263818], [27.6985659, 37.5123772], [27.6873492, 37.5065939], [27.6865546, 37.4989046], [27.6802253, 37.4903191], [27.6747337, 37.4907509], [27.671581, 37.4940669], [27.6559276, 37.49984], [27.6421839, 37.5049085], [27.6230599, 37.5038297], [27.6179386, 37.509963], [27.6209844, 37.5148032], [27.6200603, 37.521782], [27.6265692, 37.5281849], [27.6231081, 37.5338119], [27.6240965, 37.5422867], [27.622568, 37.550164], [27.6257824, 37.5566647], [27.618513, 37.5556693], [27.6113608, 37.5472488], [27.6046797, 37.5417755], [27.5962829, 37.5377717], [27.590399, 37.532426], [27.5843258, 37.5204582], [27.5729931, 37.5163383], [27.5577449, 37.5204826], [27.5521056, 37.5240229], [27.5425969, 37.5290144], [27.5295066, 37.5333477], [27.52676, 37.5355257], [27.5240993, 37.5364105], [27.5197957, 37.535997], [27.515589, 37.5380224], [27.5078147, 37.5375809], [27.4980572, 37.5279134], [27.4909395, 37.5036785], [27.4625855, 37.5008689], [27.4497145, 37.4866633], [27.4439735, 37.4702764], [27.4731312, 37.4387597], [27.4894119, 37.4269442], [27.4904418, 37.4022659], [27.4902266, 37.4020385], [27.4747348, 37.3846726], [27.4587821, 37.3804566], [27.4548339, 37.3763643], [27.4392867, 37.3736236], [27.4185157, 37.3607992], [27.4095152, 37.3619714], [27.3924232, 37.3562964], [27.3841401, 37.355243], [27.382677, 37.354363], [27.3639555, 37.3437219], [27.3535986, 37.3201146], [27.3183853, 37.2860631], [27.2694071, 37.2543401], [27.2697075, 37.2536605], [27.2702586, 37.2524744], [27.2708333, 37.2512953], [27.2714315, 37.2501237], [27.2720531, 37.2489598], [27.2726979, 37.2478039], [27.2733657, 37.2466563], [27.2740563, 37.2455173], [27.2747697, 37.2443872], [27.2755055, 37.2432662], [27.2762637, 37.2421547], [27.277044, 37.241053], [27.2778462, 37.2399612], [27.2786702, 37.2388797], [27.2795156, 37.2378088], [27.2803824, 37.2367487], [27.2812703, 37.2356997], [27.282179, 37.2346621], [27.2831083, 37.2336361], [27.2840581, 37.232622], [27.2840853, 37.2325938], [27.2836131, 37.2322141], [27.28278, 37.2319239], [27.2813407, 37.2314006], [27.279912, 37.2308592], [27.2797296, 37.2307887], [27.2787138, 37.2303902], [27.278467, 37.230292], [27.2770627, 37.2297221], [27.2756699, 37.2291346], [27.2742889, 37.2285297], [27.2729201, 37.2279076], [27.2715638, 37.2272682], [27.2702204, 37.2266119], [27.2688901, 37.2259388], [27.2675734, 37.225249], [27.2662704, 37.2245428], [27.2649817, 37.2238202], [27.2637074, 37.2230816], [27.262448, 37.222327], [27.2612036, 37.2215566], [27.2607793, 37.2212852], [27.2599095, 37.2211551], [27.2583338, 37.2208982], [27.2567635, 37.2206212], [27.255199, 37.220324], [27.2536407, 37.2200068], [27.252089, 37.2196696], [27.2505443, 37.2193126], [27.2491772, 37.2189775], [27.2488552, 37.2189118], [27.2473352, 37.2185812], [27.245822, 37.2182315], [27.2443159, 37.2178628], [27.2428173, 37.2174753], [27.2413265, 37.217069], [27.239844, 37.2166439], [27.2383701, 37.2162003], [27.2369052, 37.2157382], [27.2354496, 37.2152578], [27.2340037, 37.2147591], [27.2325679, 37.2142422], [27.2311425, 37.2137075], [27.2297279, 37.2131548], [27.2283244, 37.2125844], [27.2269324, 37.2119965], [27.2255523, 37.2113911], [27.2241843, 37.2107685], [27.2234845, 37.2104382], [27.2226694, 37.2101344], [27.221262, 37.2095883], [27.2198655, 37.2090246], [27.2184803, 37.2084436], [27.2171067, 37.2078454], [27.2157451, 37.2072301], [27.2143958, 37.2065978], [27.2143315, 37.2065671], [27.2129915, 37.2059165], [27.2116645, 37.2052491], [27.2103508, 37.2045652], [27.2090508, 37.203865], [27.2077648, 37.2031485], [27.2066912, 37.2025301], [27.2060557, 37.2022432], [27.2047029, 37.2016098], [27.2033628, 37.2009597], [27.2020357, 37.2002928], [27.200722, 37.1996094], [27.1994218, 37.1989096], [27.1981357, 37.1981936], [27.1968638, 37.1974616], [27.1956066, 37.1967137], [27.1943642, 37.1959502], [27.1931371, 37.1951713], [27.1919255, 37.194377], [27.1907297, 37.1935677], [27.18955, 37.1927434], [27.1883868, 37.1919046], [27.1872402, 37.1910512], [27.1861106, 37.1901835], [27.1849983, 37.1893019], [27.1839035, 37.1884064], [27.1828266, 37.1874972], [27.1817676, 37.1865747], [27.1807271, 37.1856391], [27.1797051, 37.1846905], [27.1787019, 37.1837292], [27.1777179, 37.1827555], [27.1767532, 37.1817695], [27.175808, 37.1807716], [27.1748827, 37.1797619], [27.1739774, 37.1787408], [27.1730923, 37.1777084], [27.1722277, 37.1766651], [27.1713838, 37.1756111], [27.1705609, 37.1745466], [27.169759, 37.1734719], [27.1689784, 37.1723872], [27.1682193, 37.171293], [27.1674819, 37.1701893], [27.1667663, 37.1690765], [27.1660728, 37.1679549], [27.1654015, 37.1668247], [27.1651543, 37.166391], [27.1648465, 37.165935], [27.1641267, 37.1648272], [27.1634289, 37.1637106], [27.162753, 37.1625853], [27.1620994, 37.1614518], [27.1614682, 37.1603102], [27.1608595, 37.1591608], [27.1606308, 37.1587092], [27.1599781, 37.158422], [27.1586161, 37.1578001], [27.1572665, 37.1571612], [27.1559297, 37.1565055], [27.154606, 37.1558331], [27.1532957, 37.1551442], [27.1519992, 37.154439], [27.1507167, 37.1537176], [27.1494487, 37.1529802], [27.1481953, 37.152227], [27.146957, 37.1514581], [27.145734, 37.1506739], [27.1445266, 37.1498743], [27.1433351, 37.1490598], [27.1421599, 37.1482304], [27.1410011, 37.1473864], [27.1398592, 37.1465279], [27.1387343, 37.1456552], [27.1376268, 37.1447686], [27.1365369, 37.1438681], [27.1354649, 37.1429541], [27.1344111, 37.1420267], [27.1338891, 37.1415526], [27.1345022, 37.1345308], [27.1351794, 37.1241835], [27.1362493, 37.1212525], [27.138888, 37.1140898], [27.1398595, 37.1114799], [27.1401229, 37.1106634], [27.15122, 37.0827618], [27.1508582, 37.0820896], [27.1507803, 37.0819448], [27.1349001, 37.0524372], [27.1406054, 37.0288887], [27.118267, 37.0083687]]]}}]}